{"type": "FeatureCollection", "features": [{"type": "Feature", "geometry": {"type": "Point", "coordinates": [99.035184, 18.781801]}, "properties": {"kind": "ribbon-tree", "title": "Rainbow cloth wrapped around a giant roadside tree", "title_th": "ผ้าแถบสีรุ้งพันรอบต้นไม้ใหญ่ริมทาง", "date": "2026-09-24", "photo": "https://nanobotco.github.io/field/photos/2026-09-24/ride-20260924-ribbon-tree-aa2731-240.jpg", "page": "https://motdang.net/field/san/rainbow-cloth-wrapped-around-a-giant-roadside-tree/", "credit": "NaN Peacock", "licence": "CC BY 4.0"}}, {"type": "Feature", "geometry": {"type": "Point", "coordinates": [99.03445, 18.781949]}, "properties": {"kind": "spirit-house", "title": "Gold spirit house on a pillar outside a shophouse", "title_th": "ศาลพระภูมิสีทองตั้งบนเสาหน้าตึกแถว", "date": "2026-09-24", "photo": "https://nanobotco.github.io/field/photos/2026-09-24/ride-20260924-spirit-house-aa2731-244.jpg", "page": "https://motdang.net/field/san/gold-spirit-house-on-a-pillar-outside-a-shophouse/", "credit": "NaN Peacock", "licence": "CC BY 4.0"}}, {"type": "Feature", "geometry": {"type": "Point", "coordinates": [99.033301, 18.782173]}, "properties": {"kind": "spirit-house", "title": "Gold spirit house under a shop arcade", "title_th": "ศาลพระภูมิสีทองใต้อาเขตร้านค้า", "date": "2026-09-24", "photo": "https://nanobotco.github.io/field/photos/2026-09-24/ride-20260924-spirit-house-aa2731-250.jpg", "page": "https://motdang.net/field/san/gold-spirit-house-under-a-shop-arcade/", "credit": "NaN Peacock", "licence": "CC BY 4.0"}}, {"type": "Feature", "geometry": {"type": "Point", "coordinates": [99.025929, 18.786724]}, "properties": {"kind": "spirit-house", "title": "Small roadside spirit house", "title_th": "ศาลพระภูมิเล็กๆ ริมถนน", "date": "2026-09-24", "photo": "https://nanobotco.github.io/field/photos/2026-09-24/ride-20260924-spirit-house-aa2731-319.jpg", "page": "https://motdang.net/field/san/small-roadside-spirit-house/", "credit": "NaN Peacock", "licence": "CC BY 4.0"}}, {"type": "Feature", "geometry": {"type": "Point", "coordinates": [99.025691, 18.787394]}, "properties": {"kind": "spirit-house", "title": "White-and-gold spirit house at a gate", "title_th": "ศาลพระภูมิสีขาวทองที่ประตูรั้ว", "date": "2026-09-24", "photo": "https://nanobotco.github.io/field/photos/2026-09-24/ride-20260924-spirit-house-aa2731-323.jpg", "page": "https://motdang.net/field/san/white-and-gold-spirit-house-at-a-gate/", "credit": "NaN Peacock", "licence": "CC BY 4.0"}}, {"type": "Feature", "geometry": {"type": "Point", "coordinates": [99.02337, 18.791732]}, "properties": {"kind": "spirit-house", "title": "Twin gold spirit houses at the Eurasia Hotel corner", "title_th": "ศาลพระภูมิทองคู่ที่มุมโรงแรมยูเรเซีย", "date": "2026-09-24", "photo": "https://nanobotco.github.io/field/photos/2026-09-24/ride-20260924-spirit-house-aa2731-347.jpg", "page": "https://motdang.net/field/san/twin-gold-spirit-houses-at-the-eurasia-hotel-corner/", "credit": "NaN Peacock", "licence": "CC BY 4.0"}}, {"type": "Feature", "geometry": {"type": "Point", "coordinates": [99.021899, 18.794702]}, "properties": {"kind": "spirit-house", "title": "Spirit house by a furniture store", "title_th": "ศาลพระภูมิหน้าร้านเฟอร์นิเจอร์", "date": "2026-09-24", "photo": "https://nanobotco.github.io/field/photos/2026-09-24/ride-20260924-spirit-house-aa2731-360.jpg", "page": "https://motdang.net/field/san/spirit-house-by-a-furniture-store/", "credit": "NaN Peacock", "licence": "CC BY 4.0"}}, {"type": "Feature", "geometry": {"type": "Point", "coordinates": [99.020691, 18.797532]}, "properties": {"kind": "spirit-house", "title": "Spirit house at a tractor dealership", "title_th": "ศาลพระภูมิหน้าร้านรถแทรกเตอร์", "date": "2026-09-24", "photo": "https://nanobotco.github.io/field/photos/2026-09-24/ride-20260924-spirit-house-aa2731-372.jpg", "page": "https://motdang.net/field/san/spirit-house-at-a-tractor-dealership/", "credit": "NaN Peacock", "licence": "CC BY 4.0"}}, {"type": "Feature", "geometry": {"type": "Point", "coordinates": [99.020482, 18.79802]}, "properties": {"kind": "spirit-house", "title": "Ornate gold spirit house at a car garage", "title_th": "ศาลพระภูมิสีทองประดับหน้าอู่ซ่อมรถ", "date": "2026-09-24", "photo": "https://nanobotco.github.io/field/photos/2026-09-24/ride-20260924-spirit-house-aa2731-374.jpg", "page": "https://motdang.net/field/san/ornate-gold-spirit-house-at-a-car-garage/", "credit": "NaN Peacock", "licence": "CC BY 4.0"}}, {"type": "Feature", "geometry": {"type": "Point", "coordinates": [99.019839, 18.799479]}, "properties": {"kind": "spirit-house", "title": "Golden spirit house on a machinery yard wall", "title_th": "ศาลพระภูมิสีทองบนกำแพงลานเครื่องจักร", "date": "2026-09-24", "photo": "https://nanobotco.github.io/field/photos/2026-09-24/ride-20260924-spirit-house-aa2731-380.jpg", "page": "https://motdang.net/field/san/golden-spirit-house-on-a-machinery-yard-wall/", "credit": "NaN Peacock", "licence": "CC BY 4.0"}}, {"type": "Feature", "geometry": {"type": "Point", "coordinates": [99.017356, 18.805112]}, "properties": {"kind": "spirit-house", "title": "Small gold spirit house glimpsed through trees", "title_th": "ศาลพระภูมิสีทองขนาดเล็กที่เห็นผ่านต้นไม้", "date": "2026-09-24", "photo": "https://nanobotco.github.io/field/photos/2026-09-24/ride-20260924-spirit-house-aa2731-432.jpg", "page": "https://motdang.net/field/san/small-gold-spirit-house-glimpsed-through-trees/", "credit": "NaN Peacock", "licence": "CC BY 4.0"}}, {"type": "Feature", "geometry": {"type": "Point", "coordinates": [99.01637, 18.806392]}, "properties": {"kind": "spirit-house", "title": "Spirit house beside an auto parts shop", "title_th": "ศาลพระภูมิข้างร้านอะไหล่รถยนต์", "date": "2026-09-24", "photo": "https://nanobotco.github.io/field/photos/2026-09-24/ride-20260924-spirit-house-aa2731-438.jpg", "page": "https://motdang.net/field/san/spirit-house-beside-an-auto-parts-shop/", "credit": "NaN Peacock", "licence": "CC BY 4.0"}}, {"type": "Feature", "geometry": {"type": "Point", "coordinates": [99.014714, 18.807817]}, "properties": {"kind": "shrine", "title": "Gold shrine with a small elephant figure at a roadside property", "title_th": "ศาลเจ้าสีทองมีรูปช้างเล็กหน้าอาคารริมถนน", "date": "2026-09-24", "photo": "https://nanobotco.github.io/field/photos/2026-09-24/ride-20260924-shrine-aa2731-446.jpg", "page": "https://motdang.net/field/san/gold-shrine-with-a-small-elephant-figure-at-a-roadside/", "credit": "NaN Peacock", "licence": "CC BY 4.0"}}, {"type": "Feature", "geometry": {"type": "Point", "coordinates": [99.01494, 18.80766]}, "properties": {"kind": "shrine", "title": "White statue on a pedestal at a garden restaurant entrance", "title_th": "รูปปั้นสีขาวบนแท่นที่ทางเข้าร้านอาหารสวน", "date": "2026-09-24", "photo": "https://nanobotco.github.io/field/photos/2026-09-24/ride-20260924-shrine-aa2731-445.jpg", "page": "https://motdang.net/field/san/white-statue-on-a-pedestal-at-a-garden-restaurant/", "credit": "NaN Peacock", "licence": "CC BY 4.0"}}, {"type": "Feature", "geometry": {"type": "Point", "coordinates": [99.010582, 18.809344]}, "properties": {"kind": "spirit-house", "title": "Spirit house at a tyre and service centre entrance", "title_th": "ศาลพระภูมิที่ทางเข้าศูนย์บริการยางและซ่อมรถ", "date": "2026-09-24", "photo": "https://nanobotco.github.io/field/photos/2026-09-24/ride-20260924-spirit-house-aa2731-506.jpg", "page": "https://motdang.net/field/san/spirit-house-at-a-tyre-and-service-centre-entrance/", "credit": "NaN Peacock", "licence": "CC BY 4.0"}}, {"type": "Feature", "geometry": {"type": "Point", "coordinates": [98.997161, 18.804431]}, "properties": {"kind": "spirit-house", "title": "A small gold spirit house behind the gate", "title_th": "ศาลพระภูมิสีทองหลังประตูรั้ว", "date": "2026-09-24", "photo": "https://nanobotco.github.io/field/photos/2026-09-24/ride-20260924-spirit-house-aa2731-733.jpg", "page": "https://motdang.net/field/san/small-gold-spirit-house-behind-the-gate/", "credit": "NaN Peacock", "licence": "CC BY 4.0"}}, {"type": "Feature", "geometry": {"type": "Point", "coordinates": [98.997875, 18.805013]}, "properties": {"kind": "spirit-house", "title": "Small gilded spirit house behind the greenery", "title_th": "ศาลพระภูมิสีทองหลังพุ่มไม้", "date": "2026-09-24", "photo": "https://nanobotco.github.io/field/photos/2026-09-24/ride-20260924-spirit-house-aa2731-822.jpg", "page": "https://motdang.net/field/san/small-gilded-spirit-house-behind-the-greenery/", "credit": "NaN Peacock", "licence": "CC BY 4.0"}}, {"type": "Feature", "geometry": {"type": "Point", "coordinates": [98.997076, 18.803988]}, "properties": {"kind": "spirit-house", "title": "Two spirit houses at a gate", "title_th": "ศาลพระภูมิและศาลตายายที่หน้าประตูบ้าน", "date": "2026-09-24", "photo": "https://nanobotco.github.io/field/photos/2026-09-24/ride-20260924-spirit-house-aa2731-844.jpg", "page": "https://motdang.net/field/san/two-spirit-houses-at-a-gate/", "credit": "NaN Peacock", "licence": "CC BY 4.0"}}, {"type": "Feature", "geometry": {"type": "Point", "coordinates": [98.994986, 18.799838]}, "properties": {"kind": "spirit-house", "title": "A small golden spirit house on a traffic island", "title_th": "ศาลพระภูมิสีทองขนาดเล็กบนเกาะกลางถนน", "date": "2026-09-24", "photo": "https://nanobotco.github.io/field/photos/2026-09-24/ride-20260924-spirit-house-aa2731-896.jpg", "page": "https://motdang.net/field/san/small-golden-spirit-house-on-a-traffic-island/", "credit": "NaN Peacock", "licence": "CC BY 4.0"}}, {"type": "Feature", "geometry": {"type": "Point", "coordinates": [98.994671, 18.798384]}, "properties": {"kind": "spirit-house", "title": "Spirit house at the Royal Peninsula Hotel", "title_th": "ศาลพระภูมิที่โรงแรม Royal Peninsula", "date": "2026-09-24", "photo": "https://nanobotco.github.io/field/photos/2026-09-24/ride-20260924-spirit-house-aa2731-906.jpg", "page": "https://motdang.net/field/san/spirit-house-at-the-royal-peninsula-hotel/", "credit": "NaN Peacock", "licence": "CC BY 4.0"}}, {"type": "Feature", "geometry": {"type": "Point", "coordinates": [98.993836, 18.792711]}, "properties": {"kind": "spirit-house", "title": "Green spirit house by a gated driveway", "title_th": "ศาลเจ้าที่สีเขียวข้างทางเข้ารั้ว", "date": "2026-09-24", "photo": "https://nanobotco.github.io/field/photos/2026-09-24/ride-20260924-spirit-house-aa2731-963.jpg", "page": "https://motdang.net/field/san/green-spirit-house-by-a-gated-driveway/", "credit": "NaN Peacock", "licence": "CC BY 4.0"}}, {"type": "Feature", "geometry": {"type": "Point", "coordinates": [98.99374, 18.790789]}, "properties": {"kind": "spirit-house", "title": "White spirit house at the Nidhra Lanna Hotel entrance", "title_th": "ศาลพระภูมิสีขาวหน้าโรงแรม Nidhra Lanna", "date": "2026-09-24", "photo": "https://nanobotco.github.io/field/photos/2026-09-24/ride-20260924-spirit-house-aa2731-977.jpg", "page": "https://motdang.net/field/san/white-spirit-house-at-the-nidhra-lanna-hotel-entrance/", "credit": "NaN Peacock", "licence": "CC BY 4.0"}}, {"type": "Feature", "geometry": {"type": "Point", "coordinates": [98.993659, 18.78969]}, "properties": {"kind": "spirit-house", "title": "Garlanded spirit houses at a hotel entrance", "title_th": "ศาลพระภูมิคล้องพวงมาลัยหน้าโรงแรม", "date": "2026-09-24", "photo": "https://nanobotco.github.io/field/photos/2026-09-24/ride-20260924-spirit-house-aa2731-985.jpg", "page": "https://motdang.net/field/san/garlanded-spirit-houses-at-a-hotel-entrance/", "credit": "NaN Peacock", "licence": "CC BY 4.0"}}, {"type": "Feature", "geometry": {"type": "Point", "coordinates": [98.992944, 18.781104]}, "properties": {"kind": "shrine", "title": "Royal portrait shrine by the moat", "title_th": "ศาลพระบรมฉายาลักษณ์ริมคูเมือง", "date": "2026-09-24", "photo": "https://nanobotco.github.io/field/photos/2026-09-24/ride-20260924-shrine-aa3729-057.jpg", "page": "https://motdang.net/field/san/royal-portrait-shrine-by-the-moat/", "credit": "NaN Peacock", "licence": "CC BY 4.0"}}, {"type": "Feature", "geometry": {"type": "Point", "coordinates": [98.989568, 18.781059]}, "properties": {"kind": "spirit-house", "title": "Small spirit house by a soi gate", "title_th": "ศาลพระภูมิเล็กๆ ข้างทางเข้าซอย", "date": "2026-09-24", "photo": "https://nanobotco.github.io/field/photos/2026-09-24/ride-20260924-spirit-house-aa3729-082.jpg", "page": "https://motdang.net/field/san/small-spirit-house-by-a-soi-gate/", "credit": "NaN Peacock", "licence": "CC BY 4.0"}}, {"type": "Feature", "geometry": {"type": "Point", "coordinates": [98.981155, 18.781282]}, "properties": {"kind": "spirit-house", "title": "Spirit house at a framing shop", "title_th": "ศาลพระภูมิหน้าร้านกรอบรูป", "date": "2026-09-24", "photo": "https://nanobotco.github.io/field/photos/2026-09-24/ride-20260924-spirit-house-aa3729-138.jpg", "page": "https://motdang.net/field/san/spirit-house-at-a-framing-shop/", "credit": "NaN Peacock", "licence": "CC BY 4.0"}}, {"type": "Feature", "geometry": {"type": "Point", "coordinates": [98.980104, 18.781316]}, "properties": {"kind": "spirit-house", "title": "Ornate spirit house among purple flowers", "title_th": "ศาลพระภูมิลวดลายวิจิตรท่ามกลางดอกไม้สีม่วง", "date": "2026-09-24", "photo": "https://nanobotco.github.io/field/photos/2026-09-24/ride-20260924-spirit-house-aa3729-144.jpg", "page": "https://motdang.net/field/san/ornate-spirit-house-among-purple-flowers/", "credit": "NaN Peacock", "licence": "CC BY 4.0"}}, {"type": "Feature", "geometry": {"type": "Point", "coordinates": [98.978045, 18.792337]}, "properties": {"kind": "shrine", "title": "Wat Pansao's red-roofed viharn with hanging lanterns", "title_th": "วิหารหลังคาแดงวัดปันเสาพร้อมโคมแขวน", "date": "2026-09-24", "photo": "https://nanobotco.github.io/field/photos/2026-09-24/ride-20260924-shrine-aa3729-217.jpg", "page": "https://motdang.net/field/san/wat-pansao-s-red-roofed-viharn-with-hanging-lanterns/", "credit": "NaN Peacock", "licence": "CC BY 4.0"}}, {"type": "Feature", "geometry": {"type": "Point", "coordinates": [98.978137, 18.794502]}, "properties": {"kind": "spirit-house", "title": "Spirit house at the hospital gate", "title_th": "ศาลพระภูมิหน้าประตูโรงพยาบาล", "date": "2026-09-24", "photo": "https://nanobotco.github.io/field/photos/2026-09-24/ride-20260924-spirit-house-aa3729-231.jpg", "page": "https://motdang.net/field/san/spirit-house-at-the-hospital-gate/", "credit": "NaN Peacock", "licence": "CC BY 4.0"}}, {"type": "Feature", "geometry": {"type": "Point", "coordinates": [98.978196, 18.795357]}, "properties": {"kind": "shrine", "title": "Elephant statue and shrine at a hotel entrance", "title_th": "รูปปั้นช้างและศาลเล็กหน้าโรงแรม", "date": "2026-09-24", "photo": "https://nanobotco.github.io/field/photos/2026-09-24/ride-20260924-shrine-aa3729-238.jpg", "page": "https://motdang.net/field/san/elephant-statue-and-shrine-at-a-hotel-entrance/", "credit": "NaN Peacock", "licence": "CC BY 4.0"}}, {"type": "Feature", "geometry": {"type": "Point", "coordinates": [98.979154, 18.796003]}, "properties": {"kind": "spirit-house", "title": "Spirit house tied with a tricolour ribbon", "title_th": "ศาลพระภูมิผูกผ้าสามสี", "date": "2026-09-24", "photo": "https://nanobotco.github.io/field/photos/2026-09-24/ride-20260924-spirit-house-aa3729-248.jpg", "page": "https://motdang.net/field/san/spirit-house-tied-with-a-tricolour-ribbon/", "credit": "NaN Peacock", "licence": "CC BY 4.0"}}, {"type": "Feature", "geometry": {"type": "Point", "coordinates": [98.982704, 18.795847]}, "properties": {"kind": "shrine", "title": "Guardian yaksha at the temple gate", "title_th": "ยักษ์เฝ้าประตูวัด", "date": "2026-09-24", "photo": "https://nanobotco.github.io/field/photos/2026-09-24/ride-20260924-shrine-aa3729-271.jpg", "page": "https://motdang.net/field/san/guardian-yaksha-at-the-temple-gate/", "credit": "NaN Peacock", "licence": "CC BY 4.0"}}, {"type": "Feature", "geometry": {"type": "Point", "coordinates": [98.982874, 18.796356]}, "properties": {"kind": "shrine", "title": "Carved devata pillar at the shrine gate", "title_th": "เสาแกะสลักเทวดาที่ประตูศาล", "date": "2026-09-24", "photo": "https://nanobotco.github.io/field/photos/2026-09-24/ride-20260924-shrine-aa3729-279.jpg", "page": "https://motdang.net/field/san/carved-devata-pillar-at-the-shrine-gate/", "credit": "NaN Peacock", "licence": "CC BY 4.0"}}, {"type": "Feature", "geometry": {"type": "Point", "coordinates": [98.982904, 18.796896]}, "properties": {"kind": "shrine", "title": "Golden singha and demon guardian", "title_th": "สิงห์ทองและยักษ์เฝ้าประตู", "date": "2026-09-24", "photo": "https://nanobotco.github.io/field/photos/2026-09-24/ride-20260924-shrine-aa3729-288.jpg", "page": "https://motdang.net/field/san/golden-singha-and-demon-guardian/", "credit": "NaN Peacock", "licence": "CC BY 4.0"}}, {"type": "Feature", "geometry": {"type": "Point", "coordinates": [98.983809, 18.798488]}, "properties": {"kind": "spirit-house", "title": "Golden spirit house in a garage", "title_th": "ศาลพระภูมิทองในโรงรถ", "date": "2026-09-24", "photo": "https://nanobotco.github.io/field/photos/2026-09-24/ride-20260924-spirit-house-aa3729-316.jpg", "page": "https://motdang.net/field/san/golden-spirit-house-in-a-garage/", "credit": "NaN Peacock", "licence": "CC BY 4.0"}}, {"type": "Feature", "geometry": {"type": "Point", "coordinates": [98.986184, 18.800411]}, "properties": {"kind": "shrine", "title": "Chao Pho Chang Phueak shrine at the roundabout", "title_th": "ศาลเจ้าพ่อช้างเผือกที่วงเวียน", "date": "2026-09-24", "photo": "https://nanobotco.github.io/field/photos/2026-09-24/ride-20260924-shrine-aa3729-367.jpg", "page": "https://motdang.net/field/san/chao-pho-chang-phueak-shrine-at-the-roundabout/", "credit": "NaN Peacock", "licence": "CC BY 4.0"}}, {"type": "Feature", "geometry": {"type": "Point", "coordinates": [98.988073, 18.802823]}, "properties": {"kind": "shrine", "title": "Gilded guardian statue on the temple wall", "title_th": "เทวรูปยักษ์สีทองบนกำแพงวัด", "date": "2026-09-24", "photo": "https://nanobotco.github.io/field/photos/2026-09-24/ride-20260924-shrine-aa3729-416.jpg", "page": "https://motdang.net/field/san/gilded-guardian-statue-on-the-temple-wall/", "credit": "NaN Peacock", "licence": "CC BY 4.0"}}, {"type": "Feature", "geometry": {"type": "Point", "coordinates": [98.994075, 18.800105]}, "properties": {"kind": "spirit-house", "title": "Golden spirit house and offering table on a street corner", "title_th": "ศาลพระภูมิสีทองและโต๊ะบูชาที่มุมถนน", "date": "2026-09-24", "photo": "https://nanobotco.github.io/field/photos/2026-09-24/ride-20260924-spirit-house-ae5456-124.jpg", "page": "https://motdang.net/field/san/golden-spirit-house-and-offering-table-on-a-street/", "credit": "NaN Peacock", "licence": "CC BY 4.0"}}, {"type": "Feature", "geometry": {"type": "Point", "coordinates": [98.992213, 18.799653]}, "properties": {"kind": "spirit-house", "title": "Small gilded spirit house at a car showroom", "title_th": "ศาลพระภูมิสีทองเล็กๆ ที่โชว์รูมรถ", "date": "2026-09-24", "photo": "https://nanobotco.github.io/field/photos/2026-09-24/ride-20260924-spirit-house-ae5456-136.jpg", "page": "https://motdang.net/field/san/small-gilded-spirit-house-at-a-car-showroom/", "credit": "NaN Peacock", "licence": "CC BY 4.0"}}, {"type": "Feature", "geometry": {"type": "Point", "coordinates": [98.990454, 18.79946]}, "properties": {"kind": "shrine", "title": "Gateway of the Dev Mandir Hindu temple", "title_th": "ประตูวัดฮินดูเทพมณเฑียร", "date": "2026-09-24", "photo": "https://nanobotco.github.io/field/photos/2026-09-24/ride-20260924-shrine-ae5456-150.jpg", "page": "https://motdang.net/field/san/gateway-of-the-dev-mandir-hindu-temple/", "credit": "NaN Peacock", "licence": "CC BY 4.0"}}, {"type": "Feature", "geometry": {"type": "Point", "coordinates": [98.988175, 18.798914]}, "properties": {"kind": "spirit-house", "title": "Golden spirit house on a hedged corner", "title_th": "ศาลพระภูมิสีทองที่มุมพุ่มไม้", "date": "2026-09-24", "photo": "https://nanobotco.github.io/field/photos/2026-09-24/ride-20260924-spirit-house-ae5456-180.jpg", "page": "https://motdang.net/field/san/golden-spirit-house-on-a-hedged-corner/", "credit": "NaN Peacock", "licence": "CC BY 4.0"}}, {"type": "Feature", "geometry": {"type": "Point", "coordinates": [98.983192, 18.800923]}, "properties": {"kind": "spirit-house", "title": "Gold-and-white spirit house on a naga pedestal", "title_th": "ศาลพระภูมิสีทองขาวบนแท่นลายนาคา", "date": "2026-09-24", "photo": "https://nanobotco.github.io/field/photos/2026-09-24/ride-20260924-spirit-house-ae5456-260.jpg", "page": "https://motdang.net/field/san/gold-and-white-spirit-house-on-a-naga-pedestal/", "credit": "NaN Peacock", "licence": "CC BY 4.0"}}, {"type": "Feature", "geometry": {"type": "Point", "coordinates": [98.982068, 18.801288]}, "properties": {"kind": "ribbon-tree", "title": "A banyan tree wrapped in a faded sash", "title_th": "ต้นไทรใหญ่พันผ้าแพรซีดจาง", "date": "2026-09-24", "photo": "https://nanobotco.github.io/field/photos/2026-09-24/ride-20260924-ribbon-tree-ae5456-269.jpg", "page": "https://motdang.net/field/san/banyan-tree-wrapped-in-a-faded-sash/", "credit": "NaN Peacock", "licence": "CC BY 4.0"}}, {"type": "Feature", "geometry": {"type": "Point", "coordinates": [98.981712, 18.801392]}, "properties": {"kind": "spirit-house", "title": "Small gold spirit house at a corner shophouse", "title_th": "ศาลพระภูมิสีทองเล็กๆ มุมตึกแถว", "date": "2026-09-24", "photo": "https://nanobotco.github.io/field/photos/2026-09-24/ride-20260924-spirit-house-ae5727-001.jpg", "page": "https://motdang.net/field/san/small-gold-spirit-house-at-a-corner-shophouse/", "credit": "NaN Peacock", "licence": "CC BY 4.0"}}, {"type": "Feature", "geometry": {"type": "Point", "coordinates": [98.979856, 18.799408]}, "properties": {"kind": "spirit-house", "title": "Gold spirit house at a temple compound entrance", "title_th": "ศาลพระภูมิสีทองหน้าทางเข้าวัด", "date": "2026-09-24", "photo": "https://nanobotco.github.io/field/photos/2026-09-24/ride-20260924-spirit-house-ae5727-029.jpg", "page": "https://motdang.net/field/san/gold-spirit-house-at-a-temple-compound-entrance/", "credit": "NaN Peacock", "licence": "CC BY 4.0"}}, {"type": "Feature", "geometry": {"type": "Point", "coordinates": [98.978054, 18.784117]}, "properties": {"kind": "shrine", "title": "Teochew clan hall gate", "title_th": "ประตูศาลเจ้าสมาคมแต้จิ๋ว", "date": "2026-09-24", "photo": "https://nanobotco.github.io/field/photos/2026-09-24/ride-20260924-shrine-ae5727-190.jpg", "page": "https://motdang.net/field/san/teochew-clan-hall-gate/", "credit": "NaN Peacock", "licence": "CC BY 4.0"}}, {"type": "Feature", "geometry": {"type": "Point", "coordinates": [98.978034, 18.783849]}, "properties": {"kind": "spirit-house", "title": "Spirit house behind the shrine fence", "title_th": "ศาลพระภูมิหลังรั้วศาลเจ้า", "date": "2026-09-24", "photo": "https://nanobotco.github.io/field/photos/2026-09-24/ride-20260924-spirit-house-ae5727-192.jpg", "page": "https://motdang.net/field/san/spirit-house-behind-the-shrine-fence/", "credit": "NaN Peacock", "licence": "CC BY 4.0"}}, {"type": "Feature", "geometry": {"type": "Point", "coordinates": [98.992719, 18.781795]}, "properties": {"kind": "spirit-house", "title": "Chaeng Katam guardian shrine", "title_th": "ศาลเจ้าพ่อหลักเมืองแจ่งกระต๊ำ", "date": "2026-09-24", "photo": "https://nanobotco.github.io/field/photos/2026-09-24/ride-20260924-spirit-house-ae5727-292.jpg", "page": "https://motdang.net/field/san/chaeng-katam-guardian-shrine/", "credit": "NaN Peacock", "licence": "CC BY 4.0"}}, {"type": "Feature", "geometry": {"type": "Point", "coordinates": [98.978588, 18.794864]}, "properties": {"kind": "spirit-house", "title": "White spirit house in a cafe courtyard", "title_th": "ศาลพระภูมิสีขาวในลานคาเฟ่", "date": "2026-09-24", "photo": "https://nanobotco.github.io/field/photos/2026-09-24/ride-20260924-spirit-house-ae5727-502.jpg", "page": "https://motdang.net/field/san/white-spirit-house-in-a-cafe-courtyard/", "credit": "NaN Peacock", "licence": "CC BY 4.0"}}, {"type": "Feature", "geometry": {"type": "Point", "coordinates": [98.978037, 18.783905]}, "properties": {"kind": "shrine", "title": "Teochew association hall gate", "title_th": "ประตูสมาคมแต้จิ๋วเชียงใหม่", "date": "2026-09-24", "photo": "https://nanobotco.github.io/field/photos/2026-09-24/ride-20260924-shrine-ae5727-562.jpg", "page": "https://motdang.net/field/san/teochew-association-hall-gate/", "credit": "NaN Peacock", "licence": "CC BY 4.0"}}, {"type": "Feature", "geometry": {"type": "Point", "coordinates": [98.980119, 18.78131]}, "properties": {"kind": "spirit-house", "title": "Gold spirit house among purple flowers", "title_th": "ศาลพระภูมิสีทองท่ามกลางดอกไม้สีม่วง", "date": "2026-09-24", "photo": "https://nanobotco.github.io/field/photos/2026-09-24/ride-20260924-spirit-house-ae5727-607.jpg", "page": "https://motdang.net/field/san/gold-spirit-house-among-purple-flowers/", "credit": "NaN Peacock", "licence": "CC BY 4.0"}}, {"type": "Feature", "geometry": {"type": "Point", "coordinates": [98.981073, 18.7813]}, "properties": {"kind": "spirit-house", "title": "Plain spirit house outside a framing shop", "title_th": "ศาลพระภูมิเรียบง่ายหน้าร้านกรอบรูป", "date": "2026-09-24", "photo": "https://nanobotco.github.io/field/photos/2026-09-24/ride-20260924-spirit-house-ae5727-601.jpg", "page": "https://motdang.net/field/san/plain-spirit-house-outside-a-framing-shop/", "credit": "NaN Peacock", "licence": "CC BY 4.0"}}, {"type": "Feature", "geometry": {"type": "Point", "coordinates": [98.986026, 18.767094]}, "properties": {"kind": "spirit-house", "title": "Roadside spirit house before the Bangchak station", "title_th": "ศาลพระภูมิริมถนนก่อนถึงปั๊มบางจาก", "date": "2026-09-24", "photo": "https://nanobotco.github.io/field/photos/2026-09-24/ride-20260924-spirit-house-ae5727-709.jpg", "page": "https://motdang.net/field/san/roadside-spirit-house-before-the-bangchak-station/", "credit": "NaN Peacock", "licence": "CC BY 4.0"}}, {"type": "Feature", "geometry": {"type": "Point", "coordinates": [98.98734, 18.766665]}, "properties": {"kind": "spirit-house", "title": "Shrine at the foot of a banyan tree", "title_th": "ศาลพระภูมิที่โคนต้นไทร", "date": "2026-09-24", "photo": "https://nanobotco.github.io/field/photos/2026-09-24/ride-20260924-spirit-house-ae5727-714.jpg", "page": "https://motdang.net/field/san/shrine-at-the-foot-of-a-banyan-tree/", "credit": "NaN Peacock", "licence": "CC BY 4.0"}}, {"type": "Feature", "geometry": {"type": "Point", "coordinates": [98.997332, 18.760267]}, "properties": {"kind": "shrine", "title": "Gilded portrait shrine at the Ping River bridge", "title_th": "ศาลาทองประดิษฐานรูปภาพที่หัวสะพานแม่น้ำปิง", "date": "2026-09-24", "photo": "https://nanobotco.github.io/field/photos/2026-09-24/ride-20260924-shrine-ae5727-767.jpg", "page": "https://motdang.net/field/san/gilded-portrait-shrine-at-the-ping-river-bridge/", "credit": "NaN Peacock", "licence": "CC BY 4.0"}}, {"type": "Feature", "geometry": {"type": "Point", "coordinates": [99.003596, 18.757276]}, "properties": {"kind": "shrine", "title": "A blue-and-gold temple hall behind roadside trees", "title_th": "อาคารวัดสีฟ้าทองหลังต้นไม้ริมทาง", "date": "2026-09-24", "photo": "https://nanobotco.github.io/field/photos/2026-09-24/ride-20260924-shrine-ae5727-797.jpg", "page": "https://motdang.net/field/san/blue-and-gold-temple-hall-behind-roadside-trees/", "credit": "NaN Peacock", "licence": "CC BY 4.0"}}, {"type": "Feature", "geometry": {"type": "Point", "coordinates": [99.021481, 18.761867]}, "properties": {"kind": "spirit-house", "title": "A gold spirit house and a red-and-gold house shrine with a small white stupa, in a yard beside a pickup truck.", "title_th": "ศาลพระภูมิสีทองและศาลตายายสีแดงทอง พร้อมเจดีย์ขาวเล็ก ตั้งอยู่ในลานข้างรถกระบะ", "date": "2026-09-24", "photo": "https://nanobotco.github.io/field/photos/2026-09-24/ride-20260924-spirit-house-ae5727-859.jpg", "page": "https://motdang.net/field/san/gold-spirit-house-and-a-red-and-gold-house-shrine/", "credit": "NaN Peacock", "licence": "CC BY 4.0"}}, {"type": "Feature", "geometry": {"type": "Point", "coordinates": [99.025148, 18.763212]}, "properties": {"kind": "spirit-house", "title": "A whole shopfront of ornate spirit houses for sale, Chiang Mai's Om Wiang Spirit House shop.", "title_th": "หน้าร้านศาลพระภูมิลวดลายวิจิตรวางขายเต็มพื้นที่ ร้านเชียงใหม่ อ้อมเวียงศาลพระภูมิ", "date": "2026-09-24", "photo": "https://nanobotco.github.io/field/photos/2026-09-24/ride-20260924-spirit-house-ae5727-873.jpg", "page": "https://motdang.net/field/san/whole-shopfront-of-ornate-spirit-houses-for-sale-chiang/", "credit": "NaN Peacock", "licence": "CC BY 4.0"}}, {"type": "Feature", "geometry": {"type": "Point", "coordinates": [99.04233, 18.775818]}, "properties": {"kind": "spirit-house", "title": "Gold spirit house outside an AIA insurance office", "title_th": "ศาลพระภูมิสีทองหน้าสำนักงาน AIA", "date": "2026-09-23", "photo": "https://nanobotco.github.io/field/photos/2026-09-23/ride-20260923-spirit-house-aa1911-111.jpg", "page": "https://motdang.net/field/san/gold-spirit-house-outside-an-aia-insurance-office/", "credit": "NaN Peacock", "licence": "CC BY 4.0"}}, {"type": "Feature", "geometry": {"type": "Point", "coordinates": [99.041619, 18.773051]}, "properties": {"kind": "spirit-house", "title": "Gold spirit houses in front of พี เอ ซาวด์ car-audio shop", "title_th": "ศาลพระภูมิสีทองหน้าร้านพี เอ ซาวด์", "date": "2026-09-23", "photo": "https://nanobotco.github.io/field/photos/2026-09-23/ride-20260923-spirit-house-aa1911-118.jpg", "page": "https://motdang.net/field/san/gold-spirit-houses-in-front-of-car-audio-shop/", "credit": "NaN Peacock", "licence": "CC BY 4.0"}}, {"type": "Feature", "geometry": {"type": "Point", "coordinates": [99.040721, 18.769746]}, "properties": {"kind": "spirit-house", "title": "Red-and-gold wooden spirit houses at a driveway entrance", "title_th": "ศาลพระภูมิไม้สีแดงทองริมทางเข้า", "date": "2026-09-23", "photo": "https://nanobotco.github.io/field/photos/2026-09-23/ride-20260923-spirit-house-aa1911-126.jpg", "page": "https://motdang.net/field/san/red-and-gold-wooden-spirit-houses-at-a-driveway-entrance/", "credit": "NaN Peacock", "licence": "CC BY 4.0"}}, {"type": "Feature", "geometry": {"type": "Point", "coordinates": [98.992049, 18.764395]}, "properties": {"kind": "spirit-house", "title": "Spirit house at the PTT station forecourt", "title_th": "ศาลพระภูมิที่ลานปั๊ม ปตท.", "date": "2026-09-23", "photo": "https://nanobotco.github.io/field/photos/2026-09-23/ride-20260923-spirit-house-ab2131-149.jpg", "page": "https://motdang.net/field/san/spirit-house-at-the-ptt-station-forecourt/", "credit": "NaN Peacock", "licence": "CC BY 4.0"}}, {"type": "Feature", "geometry": {"type": "Point", "coordinates": [98.977642, 18.783779]}, "properties": {"kind": "shrine", "title": "Chinese shrine across the canal", "title_th": "ศาลเจ้าจีนฝั่งตรงข้ามคูเมือง", "date": "2026-09-23", "photo": "https://nanobotco.github.io/field/photos/2026-09-23/ride-20260923-shrine-ab2131-246.jpg", "page": "https://motdang.net/field/san/chinese-shrine-across-the-canal/", "credit": "NaN Peacock", "licence": "CC BY 4.0"}}, {"type": "Feature", "geometry": {"type": "Point", "coordinates": [98.98229, 18.790753]}, "properties": {"kind": "spirit-house", "title": "A gilded spirit house behind the roadside poles", "title_th": "ศาลพระภูมิสีทองข้างเสาไฟฟ้า", "date": "2026-09-23", "photo": "https://nanobotco.github.io/field/photos/2026-09-23/ride-20260923-spirit-house-ab2131-344.jpg", "page": "https://motdang.net/field/san/gilded-spirit-house-behind-the-roadside-poles/", "credit": "NaN Peacock", "licence": "CC BY 4.0"}}, {"type": "Feature", "geometry": {"type": "Point", "coordinates": [98.982205, 18.79127]}, "properties": {"kind": "spirit-house", "title": "A white spirit house with an offering bowl on the pavement", "title_th": "ศาลพระภูมิสีขาวพร้อมขันใส่ของไหว้ริมทาง", "date": "2026-09-23", "photo": "https://nanobotco.github.io/field/photos/2026-09-23/ride-20260923-spirit-house-ab2131-349.jpg", "page": "https://motdang.net/field/san/white-spirit-house-with-an-offering-bowl-on-the-pavement/", "credit": "NaN Peacock", "licence": "CC BY 4.0"}}, {"type": "Feature", "geometry": {"type": "Point", "coordinates": [98.982386, 18.793135]}, "properties": {"kind": "spirit-house", "title": "A gold spirit house on a wall shelf", "title_th": "ศาลพระภูมิสีทองบนชั้นวางริมกำแพง", "date": "2026-09-23", "photo": "https://nanobotco.github.io/field/photos/2026-09-23/ride-20260923-spirit-house-ab2131-369.jpg", "page": "https://motdang.net/field/san/gold-spirit-house-on-a-wall-shelf/", "credit": "NaN Peacock", "licence": "CC BY 4.0"}}, {"type": "Feature", "geometry": {"type": "Point", "coordinates": [98.995937, 18.809133]}, "properties": {"kind": "market", "title": "Dealers at their amulet tables", "title_th": "เซียนพระที่โต๊ะพระเครื่อง", "date": "2026-09-24", "photo": "https://nanobotco.github.io/field/photos/2026-09-24/ride-20260924-market-ac4358-055.jpg", "page": "https://motdang.net/field/scenes/dealers-at-their-amulet-tables/", "credit": "NaN Peacock", "licence": "CC BY 4.0"}}, {"type": "Feature", "geometry": {"type": "Point", "coordinates": [98.99593, 18.809216]}, "properties": {"kind": "market", "title": "Dealers with loupes", "title_th": "เซียนพระส่องพระ", "date": "2026-09-24", "photo": "https://nanobotco.github.io/field/photos/2026-09-24/ride-20260924-market-ac4358-057.jpg", "page": "https://motdang.net/field/scenes/dealers-with-loupes/", "credit": "NaN Peacock", "licence": "CC BY 4.0"}}, {"type": "Feature", "geometry": {"type": "Point", "coordinates": [98.996003, 18.809152]}, "properties": {"kind": "market", "title": "The long aisle of the amulet market", "title_th": "ทางเดินยาวของตลาดพระเครื่อง", "date": "2026-09-24", "photo": "https://nanobotco.github.io/field/photos/2026-09-24/ride-20260924-market-ac4358-083.jpg", "page": "https://motdang.net/field/scenes/long-aisle-of-the-amulet-market/", "credit": "NaN Peacock", "licence": "CC BY 4.0"}}, {"type": "Feature", "geometry": {"type": "Point", "coordinates": [98.996148, 18.809179]}, "properties": {"kind": "market", "title": "Amulet table beside a khao soi stall", "title_th": "โต๊ะพระเครื่องข้างร้านข้าวซอย", "date": "2026-09-24", "photo": "https://nanobotco.github.io/field/photos/2026-09-24/ride-20260924-market-ac4358-109.jpg", "page": "https://motdang.net/field/scenes/amulet-table-beside-a-khao-soi-stall/", "credit": "NaN Peacock", "licence": "CC BY 4.0"}}, {"type": "Feature", "geometry": {"type": "Point", "coordinates": [98.99616, 18.809155]}, "properties": {"kind": "market", "title": "A dealer checks an amulet with a loupe", "title_th": "เซียนพระส่องพระด้วยกล้องส่อง", "date": "2026-09-24", "photo": "https://nanobotco.github.io/field/photos/2026-09-24/ride-20260924-market-ac4358-127.jpg", "page": "https://motdang.net/field/scenes/dealer-checks-an-amulet-with-a-loupe/", "credit": "NaN Peacock", "licence": "CC BY 4.0"}}, {"type": "Feature", "geometry": {"type": "Point", "coordinates": [98.996127, 18.80918]}, "properties": {"kind": "market", "title": "The long aisle of amulet trays", "title_th": "ทางเดินยาวของถาดพระ", "date": "2026-09-24", "photo": "https://nanobotco.github.io/field/photos/2026-09-24/ride-20260924-market-ac4358-143.jpg", "page": "https://motdang.net/field/scenes/long-aisle-of-amulet-trays/", "credit": "NaN Peacock", "licence": "CC BY 4.0"}}, {"type": "Feature", "geometry": {"type": "Point", "coordinates": [98.996106, 18.809183]}, "properties": {"kind": "market", "title": "Trays and the Wednesday-market banner", "title_th": "ถาดพระและป้ายตลาดนัดพระวันพุธ", "date": "2026-09-24", "photo": "https://nanobotco.github.io/field/photos/2026-09-24/ride-20260924-market-ac4358-155.jpg", "page": "https://motdang.net/field/scenes/trays-and-the-wednesday-market-banner/", "credit": "NaN Peacock", "licence": "CC BY 4.0"}}, {"type": "Feature", "geometry": {"type": "Point", "coordinates": [98.996072, 18.80915]}, "properties": {"kind": "market", "title": "A khao soi shop inside the amulet market", "title_th": "ร้านข้าวซอยในตลาดพระ", "date": "2026-09-24", "photo": "https://nanobotco.github.io/field/photos/2026-09-24/ride-20260924-market-ac4358-169.jpg", "page": "https://motdang.net/field/scenes/khao-soi-shop-inside-the-amulet-market/", "credit": "NaN Peacock", "licence": "CC BY 4.0"}}, {"type": "Feature", "geometry": {"type": "Point", "coordinates": [98.99604, 18.809127]}, "properties": {"kind": "market", "title": "Monks and dealers in the amulet hall", "title_th": "พระสงฆ์และเซียนพระในโถงตลาดพระ", "date": "2026-09-24", "photo": "https://nanobotco.github.io/field/photos/2026-09-24/ride-20260924-market-ac4358-179.jpg", "page": "https://motdang.net/field/scenes/monks-and-dealers-in-the-amulet-hall/", "credit": "NaN Peacock", "licence": "CC BY 4.0"}}, {"type": "Feature", "geometry": {"type": "Point", "coordinates": [98.995943, 18.809078]}, "properties": {"kind": "market", "title": "Two buyers raise their loupes", "title_th": "ผู้ซื้อสองคนยกกล้องส่องพระ", "date": "2026-09-24", "photo": "https://nanobotco.github.io/field/photos/2026-09-24/ride-20260924-market-ac4358-191.jpg", "page": "https://motdang.net/field/scenes/two-buyers-raise-their-loupes/", "credit": "NaN Peacock", "licence": "CC BY 4.0"}}, {"type": "Feature", "geometry": {"type": "Point", "coordinates": [98.995858, 18.809063]}, "properties": {"kind": "market", "title": "Casing stalls and a hanging monk's bag", "title_th": "ร้านเลี่ยมพระและย่ามที่แขวนขาย", "date": "2026-09-24", "photo": "https://nanobotco.github.io/field/photos/2026-09-24/ride-20260924-market-ac4358-201.jpg", "page": "https://motdang.net/field/scenes/casing-stalls-and-a-hanging-monk-s-bag/", "credit": "NaN Peacock", "licence": "CC BY 4.0"}}, {"type": "Feature", "geometry": {"type": "Point", "coordinates": [98.995659, 18.809062]}, "properties": {"kind": "market", "title": "The open end of the amulet hall", "title_th": "ปลายโถงตลาดพระที่เปิดโล่ง", "date": "2026-09-24", "photo": "https://nanobotco.github.io/field/photos/2026-09-24/ride-20260924-market-ac4358-231.jpg", "page": "https://motdang.net/field/scenes/open-end-of-the-amulet-hall/", "credit": "NaN Peacock", "licence": "CC BY 4.0"}}, {"type": "Feature", "geometry": {"type": "Point", "coordinates": [98.995615, 18.809236]}, "properties": {"kind": "market", "title": "Tables of gold-cased amulets in the outer aisle", "title_th": "โต๊ะพระเลี่ยมทองในทางเดินด้านนอก", "date": "2026-09-24", "photo": "https://nanobotco.github.io/field/photos/2026-09-24/ride-20260924-market-ac4358-263.jpg", "page": "https://motdang.net/field/scenes/tables-of-gold-cased-amulets-in-the-outer-aisle/", "credit": "NaN Peacock", "licence": "CC BY 4.0"}}, {"type": "Feature", "geometry": {"type": "Point", "coordinates": [98.995623, 18.809256]}, "properties": {"kind": "market", "title": "Old amulets laid out in the outer aisle", "title_th": "พระเก่าวางเรียงในทางเดินด้านนอก", "date": "2026-09-24", "photo": "https://nanobotco.github.io/field/photos/2026-09-24/ride-20260924-market-ac4358-271.jpg", "page": "https://motdang.net/field/scenes/old-amulets-laid-out-in-the-outer-aisle/", "credit": "NaN Peacock", "licence": "CC BY 4.0"}}, {"type": "Feature", "geometry": {"type": "Point", "coordinates": [98.995533, 18.809332]}, "properties": {"kind": "market", "title": "The main aisle of the amulet market", "title_th": "ทางเดินหลักของตลาดพระ", "date": "2026-09-24", "photo": "https://nanobotco.github.io/field/photos/2026-09-24/ride-20260924-market-ac4358-315.jpg", "page": "https://motdang.net/field/scenes/main-aisle-of-the-amulet-market/", "credit": "NaN Peacock", "licence": "CC BY 4.0"}}, {"type": "Feature", "geometry": {"type": "Point", "coordinates": [98.995546, 18.809324]}, "properties": {"kind": "market", "title": "Dealers at the long amulet table", "title_th": "คนขายที่โต๊ะพระยาว", "date": "2026-09-24", "photo": "https://nanobotco.github.io/field/photos/2026-09-24/ride-20260924-market-ac4358-317.jpg", "page": "https://motdang.net/field/scenes/dealers-at-the-long-amulet-table/", "credit": "NaN Peacock", "licence": "CC BY 4.0"}}, {"type": "Feature", "geometry": {"type": "Point", "coordinates": [98.995593, 18.809201]}, "properties": {"kind": "market", "title": "Amulet shops along the market wall", "title_th": "ร้านพระเครื่องริมผนังตลาด", "date": "2026-09-24", "photo": "https://nanobotco.github.io/field/photos/2026-09-24/ride-20260924-market-ac4358-339.jpg", "page": "https://motdang.net/field/scenes/amulet-shops-along-the-market-wall/", "credit": "NaN Peacock", "licence": "CC BY 4.0"}}, {"type": "Feature", "geometry": {"type": "Point", "coordinates": [98.995518, 18.809107]}, "properties": {"kind": "market", "title": "The Wednesday amulet market banner over the stalls", "title_th": "ป้ายตลาดนัดพระเครื่องวันพุธเหนือแผง", "date": "2026-09-24", "photo": "https://nanobotco.github.io/field/photos/2026-09-24/ride-20260924-market-ac4358-355.jpg", "page": "https://motdang.net/field/scenes/wednesday-amulet-market-banner-over-the-stalls/", "credit": "NaN Peacock", "licence": "CC BY 4.0"}}, {"type": "Feature", "geometry": {"type": "Point", "coordinates": [98.995465, 18.809094]}, "properties": {"kind": "market", "title": "Dealers under the teal awning", "title_th": "คนขายใต้กันสาดสีเขียวอมฟ้า", "date": "2026-09-24", "photo": "https://nanobotco.github.io/field/photos/2026-09-24/ride-20260924-market-ac4358-365.jpg", "page": "https://motdang.net/field/scenes/dealers-under-the-teal-awning/", "credit": "NaN Peacock", "licence": "CC BY 4.0"}}, {"type": "Feature", "geometry": {"type": "Point", "coordinates": [98.995431, 18.809093]}, "properties": {"kind": "market", "title": "The Wednesday amulet market, main aisle", "title_th": "ตลาดนัดพระเครื่องวันพุธ ทางเดินหลัก", "date": "2026-09-24", "photo": "https://nanobotco.github.io/field/photos/2026-09-24/ride-20260924-market-ac4728-023.jpg", "page": "https://motdang.net/field/scenes/wednesday-amulet-market-main-aisle/", "credit": "NaN Peacock", "licence": "CC BY 4.0"}}, {"type": "Feature", "geometry": {"type": "Point", "coordinates": [98.995475, 18.80907]}, "properties": {"kind": "market", "title": "Amulet shop fronts in the Kamthieng market", "title_th": "หน้าร้านพระเครื่องในตลาดคำเที่ยง", "date": "2026-09-24", "photo": "https://nanobotco.github.io/field/photos/2026-09-24/ride-20260924-market-ac4728-113.jpg", "page": "https://motdang.net/field/scenes/amulet-shop-fronts-in-the-kamthieng-market/", "credit": "NaN Peacock", "licence": "CC BY 4.0"}}, {"type": "Feature", "geometry": {"type": "Point", "coordinates": [98.995572, 18.809052]}, "properties": {"kind": "market", "title": "A dealer counts amulets as the aisle fills", "title_th": "พ่อค้านับพระเครื่องขณะที่ทางเดินเริ่มคึกคัก", "date": "2026-09-24", "photo": "https://nanobotco.github.io/field/photos/2026-09-24/ride-20260924-market-ac4728-129.jpg", "page": "https://motdang.net/field/scenes/dealer-counts-amulets-as-the-aisle-fills/", "credit": "NaN Peacock", "licence": "CC BY 4.0"}}, {"type": "Feature", "geometry": {"type": "Point", "coordinates": [98.99561, 18.809085]}, "properties": {"kind": "market", "title": "Dealers under the red casing-shop sign", "title_th": "พ่อค้านั่งใต้ป้ายร้านกรอบพระกันน้ำ", "date": "2026-09-24", "photo": "https://nanobotco.github.io/field/photos/2026-09-24/ride-20260924-market-ac4728-137.jpg", "page": "https://motdang.net/field/scenes/dealers-under-the-red-casing-shop-sign/", "credit": "NaN Peacock", "licence": "CC BY 4.0"}}, {"type": "Feature", "geometry": {"type": "Point", "coordinates": [98.995716, 18.809211]}, "properties": {"kind": "market", "title": "Buyers crowd the amulet tables", "title_th": "ผู้ซื้อรุมดูโต๊ะพระเครื่อง", "date": "2026-09-24", "photo": "https://nanobotco.github.io/field/photos/2026-09-24/ride-20260924-market-ac4728-161.jpg", "page": "https://motdang.net/field/scenes/buyers-crowd-the-amulet-tables-2/", "credit": "NaN Peacock", "licence": "CC BY 4.0"}}, {"type": "Feature", "geometry": {"type": "Point", "coordinates": [98.995743, 18.8092]}, "properties": {"kind": "market", "title": "The central aisle at its busiest", "title_th": "ทางเดินกลางช่วงที่คนแน่นที่สุด", "date": "2026-09-24", "photo": "https://nanobotco.github.io/field/photos/2026-09-24/ride-20260924-market-ac4728-173.jpg", "page": "https://motdang.net/field/scenes/central-aisle-at-its-busiest/", "credit": "NaN Peacock", "licence": "CC BY 4.0"}}, {"type": "Feature", "geometry": {"type": "Point", "coordinates": [98.995772, 18.809182]}, "properties": {"kind": "market", "title": "Monks browse a long amulet table", "title_th": "พระภิกษุเลือกดูพระเครื่องบนโต๊ะยาว", "date": "2026-09-24", "photo": "https://nanobotco.github.io/field/photos/2026-09-24/ride-20260924-market-ac4728-211.jpg", "page": "https://motdang.net/field/scenes/monks-browse-a-long-amulet-table/", "credit": "NaN Peacock", "licence": "CC BY 4.0"}}, {"type": "Feature", "geometry": {"type": "Point", "coordinates": [98.995807, 18.809116]}, "properties": {"kind": "market", "title": "Buyers crowd the amulet tables", "title_th": "ผู้ซื้อรุมโต๊ะพระเครื่อง", "date": "2026-09-24", "photo": "https://nanobotco.github.io/field/photos/2026-09-24/ride-20260924-market-ac4728-241.jpg", "page": "https://motdang.net/field/scenes/buyers-crowd-the-amulet-tables-3/", "credit": "NaN Peacock", "licence": "CC BY 4.0"}}, {"type": "Feature", "geometry": {"type": "Point", "coordinates": [98.995984, 18.809129]}, "properties": {"kind": "market", "title": "The long hall of the amulet market", "title_th": "โถงยาวของตลาดพระเครื่อง", "date": "2026-09-24", "photo": "https://nanobotco.github.io/field/photos/2026-09-24/ride-20260924-market-ac4728-261.jpg", "page": "https://motdang.net/field/scenes/long-hall-of-the-amulet-market/", "credit": "NaN Peacock", "licence": "CC BY 4.0"}}, {"type": "Feature", "geometry": {"type": "Point", "coordinates": [98.99598, 18.809171]}, "properties": {"kind": "market", "title": "Glass cases down the long hall", "title_th": "ตู้กระจกพระเครื่องเรียงไปตามโถงยาว", "date": "2026-09-24", "photo": "https://nanobotco.github.io/field/photos/2026-09-24/ride-20260924-market-ac4728-271.jpg", "page": "https://motdang.net/field/scenes/glass-cases-down-the-long-hall/", "credit": "NaN Peacock", "licence": "CC BY 4.0"}}, {"type": "Feature", "geometry": {"type": "Point", "coordinates": [98.996043, 18.809199]}, "properties": {"kind": "market", "title": "A buyer at the curio case", "title_th": "ผู้ซื้อที่ตู้ของเก่า", "date": "2026-09-24", "photo": "https://nanobotco.github.io/field/photos/2026-09-24/ride-20260924-market-ac4728-307.jpg", "page": "https://motdang.net/field/scenes/buyer-at-the-curio-case/", "credit": "NaN Peacock", "licence": "CC BY 4.0"}}, {"type": "Feature", "geometry": {"type": "Point", "coordinates": [98.996041, 18.809205]}, "properties": {"kind": "market", "title": "The coffee kiosk and a dealer's table", "title_th": "ซุ้มกาแฟและโต๊ะคนขาย", "date": "2026-09-24", "photo": "https://nanobotco.github.io/field/photos/2026-09-24/ride-20260924-market-ac4728-333.jpg", "page": "https://motdang.net/field/scenes/coffee-kiosk-and-a-dealer-s-table/", "credit": "NaN Peacock", "licence": "CC BY 4.0"}}, {"type": "Feature", "geometry": {"type": "Point", "coordinates": [98.996044, 18.809211]}, "properties": {"kind": "market", "title": "The open side of the amulet market", "title_th": "ด้านเปิดของตลาดนัดพระเครื่อง", "date": "2026-09-24", "photo": "https://nanobotco.github.io/field/photos/2026-09-24/ride-20260924-market-ac4728-343b.jpg", "page": "https://motdang.net/field/scenes/open-side-of-the-amulet-market/", "credit": "NaN Peacock", "licence": "CC BY 4.0"}}, {"type": "Feature", "geometry": {"type": "Point", "coordinates": [98.996022, 18.80919]}, "properties": {"kind": "market", "title": "The long covered aisle of the amulet hall", "title_th": "ทางเดินยาวใต้หลังคาในอาคารตลาดพระ", "date": "2026-09-24", "photo": "https://nanobotco.github.io/field/photos/2026-09-24/ride-20260924-market-ac4728-411.jpg", "page": "https://motdang.net/field/scenes/long-covered-aisle-of-the-amulet-hall/", "credit": "NaN Peacock", "licence": "CC BY 4.0"}}, {"type": "Feature", "geometry": {"type": "Point", "coordinates": [98.996024, 18.809199]}, "properties": {"kind": "market", "title": "A curio dealer at his table by the open side", "title_th": "พ่อค้าของเก่าที่โต๊ะริมด้านที่เปิดโล่ง", "date": "2026-09-24", "photo": "https://nanobotco.github.io/field/photos/2026-09-24/ride-20260924-market-ac4728-423.jpg", "page": "https://motdang.net/field/scenes/curio-dealer-at-his-table-by-the-open-side/", "credit": "NaN Peacock", "licence": "CC BY 4.0"}}, {"type": "Feature", "geometry": {"type": "Point", "coordinates": [98.995873, 18.8092]}, "properties": {"kind": "market", "title": "Monks and buyers at the ten-baht pile table", "title_th": "พระสงฆ์และผู้ซื้อที่โต๊ะพระกององค์ละ 10 บาท", "date": "2026-09-24", "photo": "https://nanobotco.github.io/field/photos/2026-09-24/ride-20260924-market-ac4728-481.jpg", "page": "https://motdang.net/field/scenes/monks-and-buyers-at-the-ten-baht-pile-table/", "credit": "NaN Peacock", "licence": "CC BY 4.0"}}, {"type": "Feature", "geometry": {"type": "Point", "coordinates": [98.995718, 18.809191]}, "properties": {"kind": "market", "title": "Monks browse the amulet tables", "title_th": "พระสงฆ์เดินดูแผงพระเครื่อง", "date": "2026-09-24", "photo": "https://nanobotco.github.io/field/photos/2026-09-24/ride-20260924-market-ac4728-523.jpg", "page": "https://motdang.net/field/scenes/monks-browse-the-amulet-tables/", "credit": "NaN Peacock", "licence": "CC BY 4.0"}}, {"type": "Feature", "geometry": {"type": "Point", "coordinates": [98.995363, 18.80909]}, "properties": {"kind": "market", "title": "Dealers around a table of amulets", "title_th": "พ่อค้ารวมตัวรอบโต๊ะพระเครื่อง", "date": "2026-09-24", "photo": "https://nanobotco.github.io/field/photos/2026-09-24/ride-20260924-market-ad5319-050.jpg", "page": "https://motdang.net/field/scenes/dealers-around-a-table-of-amulets/", "credit": "NaN Peacock", "licence": "CC BY 4.0"}}, {"type": "Feature", "geometry": {"type": "Point", "coordinates": [98.99528, 18.808907]}, "properties": {"kind": "market", "title": "ตลาดคำเที่ยง on the market's corner awning", "title_th": "ป้ายตลาดคำเที่ยงบนกันสาดมุมตลาด", "date": "2026-09-24", "photo": "https://nanobotco.github.io/field/photos/2026-09-24/ride-20260924-market-ad5319-056.jpg", "page": "https://motdang.net/field/scenes/market-s-corner-awning/", "credit": "NaN Peacock", "licence": "CC BY 4.0"}}, {"type": "Feature", "geometry": {"type": "Point", "coordinates": [99.008542, 18.809509]}, "properties": {"kind": "market", "title": "Entrance to the Nim Si Seng flower market", "title_th": "ทางเข้าตลาดดอกไม้นิ่มซี่เส็ง", "date": "2026-09-24", "photo": "https://nanobotco.github.io/field/photos/2026-09-24/ride-20260924-market-aa2731-518.jpg", "page": "https://motdang.net/field/scenes/entrance-to-the-nim-si-seng-flower-market/", "credit": "NaN Peacock", "licence": "CC BY 4.0"}}, {"type": "Feature", "geometry": {"type": "Point", "coordinates": [99.008181, 18.809562]}, "properties": {"kind": "market", "title": "The corner of Nim Ci Seng market", "title_th": "มุมตลาดนิ่มซี่เส็ง", "date": "2026-09-24", "photo": "https://nanobotco.github.io/field/photos/2026-09-24/ride-20260924-market-aa2731-599.jpg", "page": "https://motdang.net/field/scenes/corner-of-nim-ci-seng-market/", "credit": "NaN Peacock", "licence": "CC BY 4.0"}}, {"type": "Feature", "geometry": {"type": "Point", "coordinates": [98.995252, 18.808138]}, "properties": {"kind": "market", "title": "The gate into Jing Jai Village", "title_th": "ประตูทางเข้าหมู่บ้านจริงใจ", "date": "2026-09-24", "photo": "https://nanobotco.github.io/field/photos/2026-09-24/ride-20260924-market-aa2731-683.jpg", "page": "https://motdang.net/field/scenes/gate-into-jing-jai-village/", "credit": "NaN Peacock", "licence": "CC BY 4.0"}}, {"type": "Feature", "geometry": {"type": "Point", "coordinates": [98.995247, 18.807021]}, "properties": {"kind": "market", "title": "The colourful gate of Ploen Ruedee Market", "title_th": "ป้ายทางเข้าสีสันของตลาดเพลินฤดี", "date": "2026-09-24", "photo": "https://nanobotco.github.io/field/photos/2026-09-24/ride-20260924-market-aa2731-694.jpg", "page": "https://motdang.net/field/scenes/colourful-gate-of-ploen-ruedee-market/", "credit": "NaN Peacock", "licence": "CC BY 4.0"}}, {"type": "Feature", "geometry": {"type": "Point", "coordinates": [98.988753, 18.781112]}, "properties": {"kind": "market", "title": "Chiang Mai Gate market under the trees", "title_th": "ตลาดประตูเชียงใหม่ใต้ร่มไม้", "date": "2026-09-24", "photo": "https://nanobotco.github.io/field/photos/2026-09-24/ride-20260924-market-aa3729-088.jpg", "page": "https://motdang.net/field/scenes/chiang-mai-gate-market-under-the-trees/", "credit": "NaN Peacock", "licence": "CC BY 4.0"}}, {"type": "Feature", "geometry": {"type": "Point", "coordinates": [98.988484, 18.781115]}, "properties": {"kind": "market", "title": "Clothing stalls under pink tents", "title_th": "แผงขายเสื้อผ้าใต้เต็นท์สีชมพู", "date": "2026-09-24", "photo": "https://nanobotco.github.io/field/photos/2026-09-24/ride-20260924-market-aa3729-090.jpg", "page": "https://motdang.net/field/scenes/clothing-stalls-under-pink-tents/", "credit": "NaN Peacock", "licence": "CC BY 4.0"}}, {"type": "Feature", "geometry": {"type": "Point", "coordinates": [98.995239, 18.807819]}, "properties": {"kind": "market", "title": "Jing Jai Village food row at dusk", "title_th": "แถวร้านอาหารหมู่บ้านจริงใจยามเย็น", "date": "2026-09-24", "photo": "https://nanobotco.github.io/field/photos/2026-09-24/ride-20260924-market-ad5319-112.jpg", "page": "https://motdang.net/field/scenes/jing-jai-village-food-row-at-dusk/", "credit": "NaN Peacock", "licence": "CC BY 4.0"}}, {"type": "Feature", "geometry": {"type": "Point", "coordinates": [98.988142, 18.781419]}, "properties": {"kind": "market", "title": "Chiang Mai Gate Market's roofline", "title_th": "หลังคาตลาดประตูเชียงใหม่", "date": "2026-09-24", "photo": "https://nanobotco.github.io/field/photos/2026-09-24/ride-20260924-market-ae5727-260.jpg", "page": "https://motdang.net/field/scenes/chiang-mai-gate-market-s-roofline/", "credit": "NaN Peacock", "licence": "CC BY 4.0"}}, {"type": "Feature", "geometry": {"type": "Point", "coordinates": [98.993446, 18.791739]}, "properties": {"kind": "market", "title": "Fried chicken stall at Talat Somphet", "title_th": "ร้านไก่ทอดในตลาดสมเพชร", "date": "2026-09-24", "photo": "https://nanobotco.github.io/field/photos/2026-09-24/ride-20260924-market-ae5727-374.jpg", "page": "https://motdang.net/field/scenes/fried-chicken-stall-at-talat-somphet/", "credit": "NaN Peacock", "licence": "CC BY 4.0"}}, {"type": "Feature", "geometry": {"type": "Point", "coordinates": [99.030558, 18.78272]}, "properties": {"kind": "street-art", "title": "cartoon bee mural on a coffee-shop wall", "title_th": "ภาพวาดผึ้งการ์ตูนบนกำแพงร้านกาแฟ", "date": "2026-09-24", "photo": "https://nanobotco.github.io/field/photos/2026-09-24/ride-20260924-street-art-aa2731-266.jpg", "page": "https://motdang.net/field/scenes/cartoon-bee-mural-on-a-coffee-shop-wall/", "credit": "NaN Peacock", "licence": "CC BY 4.0"}}, {"type": "Feature", "geometry": {"type": "Point", "coordinates": [99.022648, 18.793081]}, "properties": {"kind": "street-art", "title": "long wall covered in black spray tags", "title_th": "กำแพงยาวเต็มไปด้วยแท็กสเปรย์สีดำ", "date": "2026-09-24", "photo": "https://nanobotco.github.io/field/photos/2026-09-24/ride-20260924-street-art-aa2731-353.jpg", "page": "https://motdang.net/field/scenes/long-wall-covered-in-black-spray-tags/", "credit": "NaN Peacock", "licence": "CC BY 4.0"}}, {"type": "Feature", "geometry": {"type": "Point", "coordinates": [99.022205, 18.794]}, "properties": {"kind": "street-art", "title": "black and white bubble-letter throw-up on a block wall", "title_th": "กราฟฟิตี้ตัวอักษรฟองสีขาวดำบนกำแพงบล็อก", "date": "2026-09-24", "photo": "https://nanobotco.github.io/field/photos/2026-09-24/ride-20260924-street-art-aa2731-357.jpg", "page": "https://motdang.net/field/scenes/black-and-white-bubble-letter-throw-up-on-a-block-wall/", "credit": "NaN Peacock", "licence": "CC BY 4.0"}}, {"type": "Feature", "geometry": {"type": "Point", "coordinates": [99.01773, 18.804451]}, "properties": {"kind": "street-art", "title": "tagged shutters of an abandoned building", "title_th": "แท็กกราฟฟิตี้บนบานเลื่อนตึกร้าง", "date": "2026-09-24", "photo": "https://nanobotco.github.io/field/photos/2026-09-24/ride-20260924-street-art-aa2731-429.jpg", "page": "https://motdang.net/field/scenes/tagged-shutters-of-an-abandoned-building/", "credit": "NaN Peacock", "licence": "CC BY 4.0"}}, {"type": "Feature", "geometry": {"type": "Point", "coordinates": [99.012909, 18.808771]}, "properties": {"kind": "street-art", "title": "cartoon comic-burst graffiti on a shuttered old teak house", "title_th": "กราฟฟิตี้การ์ตูนบนประตูเหล็กบ้านไม้เก่า", "date": "2026-09-24", "photo": "https://nanobotco.github.io/field/photos/2026-09-24/ride-20260924-street-art-aa2731-453.jpg", "page": "https://motdang.net/field/scenes/cartoon-comic-burst-graffiti-on-a-shuttered-old-teak/", "credit": "NaN Peacock", "licence": "CC BY 4.0"}}, {"type": "Feature", "geometry": {"type": "Point", "coordinates": [99.006876, 18.809621]}, "properties": {"kind": "street-art", "title": "black and white bubble-letter throw-up with a cartoon face, roadside wall", "title_th": "กราฟฟิตี้ตัวอักษรฟองขาวดำพร้อมหน้าการ์ตูนบนกำแพงริมถนน", "date": "2026-09-24", "photo": "https://nanobotco.github.io/field/photos/2026-09-24/ride-20260924-street-art-aa2731-526.jpg", "page": "https://motdang.net/field/scenes/black-and-white-bubble-letter-throw-up-with-a-cartoon/", "credit": "NaN Peacock", "licence": "CC BY 4.0"}}, {"type": "Feature", "geometry": {"type": "Point", "coordinates": [99.006417, 18.809642]}, "properties": {"kind": "street-art", "title": "black spray tags on a corrugated metal fence", "title_th": "แท็กสเปรย์สีดำบนรั้วสังกะสี", "date": "2026-09-24", "photo": "https://nanobotco.github.io/field/photos/2026-09-24/ride-20260924-street-art-aa2731-528.jpg", "page": "https://motdang.net/field/scenes/black-spray-tags-on-a-corrugated-metal-fence/", "credit": "NaN Peacock", "licence": "CC BY 4.0"}}, {"type": "Feature", "geometry": {"type": "Point", "coordinates": [99.006176, 18.809655]}, "properties": {"kind": "street-art", "title": "silver winged/moon-shape graffiti piece on a green fence", "title_th": "กราฟฟิตี้รูปทรงปีก-พระจันทร์สีเงินบนรั้วสีเขียว", "date": "2026-09-24", "photo": "https://nanobotco.github.io/field/photos/2026-09-24/ride-20260924-street-art-aa2731-529.jpg", "page": "https://motdang.net/field/scenes/silver-winged-moon-shape-graffiti-piece-on-a-green-fence/", "credit": "NaN Peacock", "licence": "CC BY 4.0"}}, {"type": "Feature", "geometry": {"type": "Point", "coordinates": [99.005939, 18.809672]}, "properties": {"kind": "street-art", "title": "row of black and pink throw-ups on a corrugated fence", "title_th": "แถวกราฟฟิตี้ขาวดำและสีชมพูบนรั้วสังกะสี", "date": "2026-09-24", "photo": "https://nanobotco.github.io/field/photos/2026-09-24/ride-20260924-street-art-aa2731-530.jpg", "page": "https://motdang.net/field/scenes/row-of-black-and-pink-throw-ups-on-a-corrugated-fence/", "credit": "NaN Peacock", "licence": "CC BY 4.0"}}, {"type": "Feature", "geometry": {"type": "Point", "coordinates": [99.003968, 18.809852]}, "properties": {"kind": "street-art", "title": "tagged concrete beams inside an underpass", "title_th": "แท็กกราฟฟิตี้บนคานคอนกรีตในอุโมงค์ลอดถนน", "date": "2026-09-24", "photo": "https://nanobotco.github.io/field/photos/2026-09-24/ride-20260924-street-art-aa2731-545.jpg", "page": "https://motdang.net/field/scenes/tagged-concrete-beams-inside-an-underpass/", "credit": "NaN Peacock", "licence": "CC BY 4.0"}}, {"type": "Feature", "geometry": {"type": "Point", "coordinates": [99.007343, 18.810033]}, "properties": {"kind": "street-art", "title": "long tagged boundary wall reading FURO", "title_th": "กำแพงยาวมีแท็ก FURO", "date": "2026-09-24", "photo": "https://nanobotco.github.io/field/photos/2026-09-24/ride-20260924-street-art-aa2731-564.jpg", "page": "https://motdang.net/field/scenes/long-tagged-boundary-wall-reading-furo/", "credit": "NaN Peacock", "licence": "CC BY 4.0"}}, {"type": "Feature", "geometry": {"type": "Point", "coordinates": [99.008848, 18.809904]}, "properties": {"kind": "street-art", "title": "row of tagged shutters on a vacant shophouse", "title_th": "แท็กกราฟฟิตี้บนบานเลื่อนตึกแถวร้าง", "date": "2026-09-24", "photo": "https://nanobotco.github.io/field/photos/2026-09-24/ride-20260924-street-art-aa2731-569.jpg", "page": "https://motdang.net/field/scenes/row-of-tagged-shutters-on-a-vacant-shophouse/", "credit": "NaN Peacock", "licence": "CC BY 4.0"}}, {"type": "Feature", "geometry": {"type": "Point", "coordinates": [99.010683, 18.809565]}, "properties": {"kind": "street-art", "title": "gilded Lanna-style relief ornament on a roundabout wall", "title_th": "ลวดลายปูนปั้นทองแบบล้านนาบนกำแพงวงเวียน", "date": "2026-09-24", "photo": "https://nanobotco.github.io/field/photos/2026-09-24/ride-20260924-street-art-aa2731-580.jpg", "page": "https://motdang.net/field/scenes/gilded-lanna-style-relief-ornament-on-a-roundabout-wall/", "credit": "NaN Peacock", "licence": "CC BY 4.0"}}, {"type": "Feature", "geometry": {"type": "Point", "coordinates": [99.006654, 18.809665]}, "properties": {"kind": "street-art", "title": "further tagged stretch of the same green boundary wall", "title_th": "แท็กกราฟฟิตี้ต่อเนื่องบนกำแพงเขียวเดียวกัน", "date": "2026-09-24", "photo": "https://nanobotco.github.io/field/photos/2026-09-24/ride-20260924-street-art-aa2731-605.jpg", "page": "https://motdang.net/field/scenes/further-tagged-stretch-of-the-same-green-boundary-wall/", "credit": "NaN Peacock", "licence": "CC BY 4.0"}}, {"type": "Feature", "geometry": {"type": "Point", "coordinates": [99.005755, 18.80975]}, "properties": {"kind": "street-art", "title": "faded pink and black tags on a low wall by a tyre shop", "title_th": "แท็กสีชมพูและดำจางบนกำแพงเตี้ยข้างร้านยาง", "date": "2026-09-24", "photo": "https://nanobotco.github.io/field/photos/2026-09-24/ride-20260924-street-art-aa2731-608.jpg", "page": "https://motdang.net/field/scenes/faded-pink-and-black-tags-on-a-low-wall-by-a-tyre-shop/", "credit": "NaN Peacock", "licence": "CC BY 4.0"}}, {"type": "Feature", "geometry": {"type": "Point", "coordinates": [98.996069, 18.810708]}, "properties": {"kind": "street-art", "title": "Scribbled tag on white fence", "title_th": "แท็กกราฟฟิตี้บนรั้วสังกะสีขาว", "date": "2026-09-24", "photo": "https://nanobotco.github.io/field/photos/2026-09-24/ride-20260924-street-art-aa2731-652.jpg", "page": "https://motdang.net/field/scenes/scribbled-tag-on-white-fence/", "credit": "NaN Peacock", "licence": "CC BY 4.0"}}, {"type": "Feature", "geometry": {"type": "Point", "coordinates": [98.995415, 18.810484]}, "properties": {"kind": "street-art", "title": "Yellow bubble-letter tag", "title_th": "แท็กตัวอักษรบับเบิ้ลสีเหลือง", "date": "2026-09-24", "photo": "https://nanobotco.github.io/field/photos/2026-09-24/ride-20260924-street-art-aa2731-660.jpg", "page": "https://motdang.net/field/scenes/yellow-bubble-letter-tag/", "credit": "NaN Peacock", "licence": "CC BY 4.0"}}, {"type": "Feature", "geometry": {"type": "Point", "coordinates": [98.995112, 18.80542]}, "properties": {"kind": "street-art", "title": "Bubble tag on wall by repair shop", "title_th": "แท็กตัวอักษรบับเบิ้ลบนกำแพงข้างร้านซ่อมรถ", "date": "2026-09-24", "photo": "https://nanobotco.github.io/field/photos/2026-09-24/ride-20260924-street-art-aa2731-706.jpg", "page": "https://motdang.net/field/scenes/bubble-tag-on-wall-by-repair-shop/", "credit": "NaN Peacock", "licence": "CC BY 4.0"}}, {"type": "Feature", "geometry": {"type": "Point", "coordinates": [98.996842, 18.803493]}, "properties": {"kind": "street-art", "title": "White bubble piece and black tag", "title_th": "พีชตัวอักษรบับเบิ้ลสีขาวและแท็กสีดำ", "date": "2026-09-24", "photo": "https://nanobotco.github.io/field/photos/2026-09-24/ride-20260924-street-art-aa2731-853.jpg", "page": "https://motdang.net/field/scenes/white-bubble-piece-and-black-tag/", "credit": "NaN Peacock", "licence": "CC BY 4.0"}}, {"type": "Feature", "geometry": {"type": "Point", "coordinates": [98.994115, 18.796521]}, "properties": {"kind": "street-art", "title": "Smiling cartoon fruit character on bus shelter panel", "title_th": "ภาพวาดผลไม้ยิ้มบนแผงศาลาที่พักรถเมล์", "date": "2026-09-24", "photo": "https://nanobotco.github.io/field/photos/2026-09-24/ride-20260924-street-art-aa2731-920.jpg", "page": "https://motdang.net/field/scenes/smiling-cartoon-fruit-character-on-bus-shelter-panel/", "credit": "NaN Peacock", "licence": "CC BY 4.0"}}, {"type": "Feature", "geometry": {"type": "Point", "coordinates": [98.994115, 18.796521]}, "properties": {"kind": "street-art", "title": "Bubble tags on bus shelter panel", "title_th": "แท็กตัวอักษรบับเบิ้ลบนแผงศาลาที่พักรถเมล์", "date": "2026-09-24", "photo": "https://nanobotco.github.io/field/photos/2026-09-24/ride-20260924-street-art-aa2731-920b.jpg", "page": "https://motdang.net/field/scenes/bubble-tags-on-bus-shelter-panel/", "credit": "NaN Peacock", "licence": "CC BY 4.0"}}, {"type": "Feature", "geometry": {"type": "Point", "coordinates": [98.993852, 18.793024]}, "properties": {"kind": "street-art", "title": "Hand-painted temple scene utility box", "title_th": "ตู้ไฟฟ้าทาสีลายวัด", "date": "2026-09-24", "photo": "https://nanobotco.github.io/field/photos/2026-09-24/ride-20260924-street-art-aa2731-961.jpg", "page": "https://motdang.net/field/scenes/hand-painted-temple-scene-utility-box/", "credit": "NaN Peacock", "licence": "CC BY 4.0"}}, {"type": "Feature", "geometry": {"type": "Point", "coordinates": [98.993852, 18.793024]}, "properties": {"kind": "street-art", "title": "Hand-painted elephant utility box", "title_th": "ตู้ไฟฟ้าทาสีลายช้าง", "date": "2026-09-24", "photo": "https://nanobotco.github.io/field/photos/2026-09-24/ride-20260924-street-art-aa2731-961b.jpg", "page": "https://motdang.net/field/scenes/hand-painted-elephant-utility-box/", "credit": "NaN Peacock", "licence": "CC BY 4.0"}}, {"type": "Feature", "geometry": {"type": "Point", "coordinates": [98.993852, 18.793024]}, "properties": {"kind": "street-art", "title": "Black tag between the painted boxes", "title_th": "แท็กสีดำระหว่างตู้ไฟฟ้าที่ทาสี", "date": "2026-09-24", "photo": "https://nanobotco.github.io/field/photos/2026-09-24/ride-20260924-street-art-aa2731-961bb.jpg", "page": "https://motdang.net/field/scenes/black-tag-between-the-painted-boxes/", "credit": "NaN Peacock", "licence": "CC BY 4.0"}}, {"type": "Feature", "geometry": {"type": "Point", "coordinates": [98.993706, 18.790292]}, "properties": {"kind": "street-art", "title": "Colorful cartoon character mural", "title_th": "ภาพวาดตัวการ์ตูนสีสันสดใส", "date": "2026-09-24", "photo": "https://nanobotco.github.io/field/photos/2026-09-24/ride-20260924-street-art-aa2731-981.jpg", "page": "https://motdang.net/field/scenes/colorful-cartoon-character-mural/", "credit": "NaN Peacock", "licence": "CC BY 4.0"}}, {"type": "Feature", "geometry": {"type": "Point", "coordinates": [98.993554, 18.786938]}, "properties": {"kind": "street-art", "title": "Scribbled tag by rental shop", "title_th": "แท็กกราฟฟิตี้ข้างร้านเช่ามอเตอร์ไซค์", "date": "2026-09-24", "photo": "https://nanobotco.github.io/field/photos/2026-09-24/ride-20260924-street-art-aa3729-010.jpg", "page": "https://motdang.net/field/scenes/scribbled-tag-by-rental-shop/", "credit": "NaN Peacock", "licence": "CC BY 4.0"}}, {"type": "Feature", "geometry": {"type": "Point", "coordinates": [98.99339, 18.785796]}, "properties": {"kind": "street-art", "title": "Bold bubble tag on shutter", "title_th": "แท็กตัวอักษรบับเบิ้ลตัวหนาบนม้วนประตูเหล็ก", "date": "2026-09-24", "photo": "https://nanobotco.github.io/field/photos/2026-09-24/ride-20260924-street-art-aa3729-019.jpg", "page": "https://motdang.net/field/scenes/bold-bubble-tag-on-shutter/", "credit": "NaN Peacock", "licence": "CC BY 4.0"}}, {"type": "Feature", "geometry": {"type": "Point", "coordinates": [98.989266, 18.781078]}, "properties": {"kind": "street-art", "title": "Lanna street-life mural on shop shutters", "title_th": "จิตรกรรมฝาผนังวิถีล้านนาบนม้วนประตูร้าน", "date": "2026-09-24", "photo": "https://nanobotco.github.io/field/photos/2026-09-24/ride-20260924-street-art-aa3729-084.jpg", "page": "https://motdang.net/field/scenes/lanna-street-life-mural-on-shop-shutters/", "credit": "NaN Peacock", "licence": "CC BY 4.0"}}, {"type": "Feature", "geometry": {"type": "Point", "coordinates": [98.988753, 18.781112]}, "properties": {"kind": "street-art", "title": "Cartoon cat mural at HAZE BUDS shutter", "title_th": "ภาพวาดแมวการ์ตูนที่ม้วนประตูร้าน HAZE BUDS", "date": "2026-09-24", "photo": "https://nanobotco.github.io/field/photos/2026-09-24/ride-20260924-street-art-aa3729-088.jpg", "page": "https://motdang.net/field/scenes/cartoon-cat-mural-at-haze-buds-shutter/", "credit": "NaN Peacock", "licence": "CC BY 4.0"}}, {"type": "Feature", "geometry": {"type": "Point", "coordinates": [98.977594, 18.782557]}, "properties": {"kind": "street-art", "title": "Long bombing wall of black tags", "title_th": "กำแพงยาวเต็มไปด้วยแท็กสีดำ", "date": "2026-09-24", "photo": "https://nanobotco.github.io/field/photos/2026-09-24/ride-20260924-street-art-aa3729-161.jpg", "page": "https://motdang.net/field/scenes/long-bombing-wall-of-black-tags/", "credit": "NaN Peacock", "licence": "CC BY 4.0"}}, {"type": "Feature", "geometry": {"type": "Point", "coordinates": [98.977653, 18.783802]}, "properties": {"kind": "street-art", "title": "Sunset mountain scene box wrap", "title_th": "ตู้พันฟิล์มลายภูเขายามพระอาทิตย์ตก", "date": "2026-09-24", "photo": "https://nanobotco.github.io/field/photos/2026-09-24/ride-20260924-street-art-aa3729-167.jpg", "page": "https://motdang.net/field/scenes/sunset-mountain-scene-box-wrap/", "credit": "NaN Peacock", "licence": "CC BY 4.0"}}, {"type": "Feature", "geometry": {"type": "Point", "coordinates": [98.984062, 18.798477]}, "properties": {"kind": "street-art", "title": "Black-and-yellow tag cluster on a warehouse corner", "title_th": "กราฟฟิตี้แท็กสีดำเหลืองที่มุมโกดัง", "date": "2026-09-24", "photo": "https://nanobotco.github.io/field/photos/2026-09-24/ride-20260924-street-art-aa3729-318.jpg", "page": "https://motdang.net/field/scenes/black-and-yellow-tag-cluster-on-a-warehouse-corner/", "credit": "NaN Peacock", "licence": "CC BY 4.0"}}, {"type": "Feature", "geometry": {"type": "Point", "coordinates": [98.985163, 18.798435]}, "properties": {"kind": "street-art", "title": "Silver tag row on a warehouse wall behind a chain-link fence", "title_th": "แท็กกราฟฟิตี้สีเงินบนกำแพงโกดังหลังรั้วลวดตาข่าย", "date": "2026-09-24", "photo": "https://nanobotco.github.io/field/photos/2026-09-24/ride-20260924-street-art-aa3729-326.jpg", "page": "https://motdang.net/field/scenes/silver-tag-row-on-a-warehouse-wall-behind-a-chain-link/", "credit": "NaN Peacock", "licence": "CC BY 4.0"}}, {"type": "Feature", "geometry": {"type": "Point", "coordinates": [98.987611, 18.800738]}, "properties": {"kind": "street-art", "title": "Shutter mural row: blue parrots, a wai-ing Muay Thai fighter, a football player", "title_th": "ภาพวาดบนม้วนเหล็กร้านค้า: นกแก้วสีฟ้า นักมวยไทยไหว้ นักฟุตบอล", "date": "2026-09-24", "photo": "https://nanobotco.github.io/field/photos/2026-09-24/ride-20260924-street-art-aa3729-388.jpg", "page": "https://motdang.net/field/scenes/shutter-mural-row-blue-parrots-a-wai-ing-muay-thai/", "credit": "NaN Peacock", "licence": "CC BY 4.0"}}, {"type": "Feature", "geometry": {"type": "Point", "coordinates": [98.995022, 18.805521]}, "properties": {"kind": "street-art", "title": "Black tag cluster with a heart on a derelict shophouse wall", "title_th": "แท็กกราฟฟิตี้สีดำรูปหัวใจบนกำแพงตึกแถวร้าง", "date": "2026-09-24", "photo": "https://nanobotco.github.io/field/photos/2026-09-24/ride-20260924-street-art-aa3729-500.jpg", "page": "https://motdang.net/field/scenes/black-tag-cluster-with-a-heart-on-a-derelict-shophouse/", "credit": "NaN Peacock", "licence": "CC BY 4.0"}}, {"type": "Feature", "geometry": {"type": "Point", "coordinates": [98.978832, 18.797209]}, "properties": {"kind": "street-art", "title": "Cartoon face doodles and a blue bubble tag on a corrugated fence", "title_th": "กราฟฟิตี้หน้าการ์ตูนและแท็กฟองสีฟ้าบนรั้วสังกะสี", "date": "2026-09-24", "photo": "https://nanobotco.github.io/field/photos/2026-09-24/ride-20260924-street-art-ae5727-049.jpg", "page": "https://motdang.net/field/scenes/cartoon-face-doodles-and-a-blue-bubble-tag/", "credit": "NaN Peacock", "licence": "CC BY 4.0"}}, {"type": "Feature", "geometry": {"type": "Point", "coordinates": [98.978711, 18.796939]}, "properties": {"kind": "street-art", "title": "Bold black tag with red and blue scribble tags on a metal fence", "title_th": "แท็กกราฟฟิตี้สีดำตัวหนาพร้อมขีดเขียนสีแดงและสีฟ้าบนรั้วสังกะสี", "date": "2026-09-24", "photo": "https://nanobotco.github.io/field/photos/2026-09-24/ride-20260924-street-art-ae5727-052.jpg", "page": "https://motdang.net/field/scenes/bold-black-tag-with-red-and-blue-scribble-tags/", "credit": "NaN Peacock", "licence": "CC BY 4.0"}}, {"type": "Feature", "geometry": {"type": "Point", "coordinates": [98.978602, 18.796703]}, "properties": {"kind": "street-art", "title": "Stencil-style robot/tank character with gear wheels on a white wall", "title_th": "กราฟฟิตี้สเตนซิลรูปหุ่นยนต์/รถถังมีล้อเฟืองบนกำแพงสีขาว", "date": "2026-09-24", "photo": "https://nanobotco.github.io/field/photos/2026-09-24/ride-20260924-street-art-ae5727-054.jpg", "page": "https://motdang.net/field/scenes/stencil-style-robot-tank-character-with-gear-wheels/", "credit": "NaN Peacock", "licence": "CC BY 4.0"}}, {"type": "Feature", "geometry": {"type": "Point", "coordinates": [98.980442, 18.795562]}, "properties": {"kind": "street-art", "title": "Black and blue throw-up tags on a low wall by the old city moat", "title_th": "กราฟฟิตี้โยนอักษรสีดำและสีฟ้าบนกำแพงเตี้ยริมคูเมือง", "date": "2026-09-24", "photo": "https://nanobotco.github.io/field/photos/2026-09-24/ride-20260924-street-art-ae5727-096.jpg", "page": "https://motdang.net/field/scenes/black-and-blue-throw-up-tags-on-a-low-wall-by-the-old/", "credit": "NaN Peacock", "licence": "CC BY 4.0"}}, {"type": "Feature", "geometry": {"type": "Point", "coordinates": [98.97861, 18.795288]}, "properties": {"kind": "street-art", "title": "Green utility cabinet covered in purple and black tags", "title_th": "ตู้ควบคุมไฟฟ้าสีเขียวเต็มไปด้วยแท็กกราฟฟิตี้สีม่วงและดำ", "date": "2026-09-24", "photo": "https://nanobotco.github.io/field/photos/2026-09-24/ride-20260924-street-art-ae5727-109.jpg", "page": "https://motdang.net/field/scenes/green-utility-cabinet-covered-in-purple-and-black-tags/", "credit": "NaN Peacock", "licence": "CC BY 4.0"}}, {"type": "Feature", "geometry": {"type": "Point", "coordinates": [98.981889, 18.781627]}, "properties": {"kind": "street-art", "title": "Graffiti tags: BAMBI bubble tag, CQ tag, stencil figure", "title_th": "กราฟฟิตี้ตัวอักษร BAMBI, CQ และภาพสเตนซิล", "date": "2026-09-24", "photo": "https://nanobotco.github.io/field/photos/2026-09-24/ride-20260924-street-art-ae5727-226.jpg", "page": "https://motdang.net/field/scenes/graffiti-tags-bambi-bubble-tag-cq-tag-stencil-figure/", "credit": "NaN Peacock", "licence": "CC BY 4.0"}}, {"type": "Feature", "geometry": {"type": "Point", "coordinates": [98.983737, 18.781556]}, "properties": {"kind": "street-art", "title": "Bubble-letter tags TASK and 1UP on shop shutters", "title_th": "กราฟฟิตี้ตัวอักษรฟองสบู่ TASK และ 1UP บนบานเกล็ดร้านค้า", "date": "2026-09-24", "photo": "https://nanobotco.github.io/field/photos/2026-09-24/ride-20260924-street-art-ae5727-236.jpg", "page": "https://motdang.net/field/scenes/bubble-letter-tags-task-and-1up-on-shop-shutters/", "credit": "NaN Peacock", "licence": "CC BY 4.0"}}, {"type": "Feature", "geometry": {"type": "Point", "coordinates": [98.983737, 18.781556]}, "properties": {"kind": "street-art", "title": "Pink skull graffiti panel with tags", "title_th": "กราฟฟิตี้หัวกะโหลกสีชมพูพร้อมลายเซ็น", "date": "2026-09-24", "photo": "https://nanobotco.github.io/field/photos/2026-09-24/ride-20260924-street-art-ae5727-236b.jpg", "page": "https://motdang.net/field/scenes/pink-skull-graffiti-panel-with-tags/", "credit": "NaN Peacock", "licence": "CC BY 4.0"}}, {"type": "Feature", "geometry": {"type": "Point", "coordinates": [98.98563, 18.781489]}, "properties": {"kind": "street-art", "title": "Painted robot/armor figures on building corner", "title_th": "ภาพวาดหุ่นยนต์หรือชุดเกราะบนมุมตึก", "date": "2026-09-24", "photo": "https://nanobotco.github.io/field/photos/2026-09-24/ride-20260924-street-art-ae5727-246.jpg", "page": "https://motdang.net/field/scenes/painted-robot-armor-figures-on-building-corner/", "credit": "NaN Peacock", "licence": "CC BY 4.0"}}, {"type": "Feature", "geometry": {"type": "Point", "coordinates": [98.993096, 18.786758]}, "properties": {"kind": "street-art", "title": "Hand-painted postal box: mailman with letter and hornbill", "title_th": "ตู้ไปรษณีย์วาดมือ: บุรุษไปรษณีย์ถือจดหมายและนกเงือก", "date": "2026-09-24", "photo": "https://nanobotco.github.io/field/photos/2026-09-24/ride-20260924-street-art-ae5727-327.jpg", "page": "https://motdang.net/field/scenes/hand-painted-postal-box-mailman-with-letter-and-hornbill/", "credit": "NaN Peacock", "licence": "CC BY 4.0"}}, {"type": "Feature", "geometry": {"type": "Point", "coordinates": [98.993493, 18.792647]}, "properties": {"kind": "street-art", "title": "Large grey abstract creature face mural on building side", "title_th": "ภาพวาดใบหน้าสัตว์ประหลาดนามธรรมสีเทาขนาดใหญ่บนผนังตึก", "date": "2026-09-24", "photo": "https://nanobotco.github.io/field/photos/2026-09-24/ride-20260924-street-art-ae5727-384.jpg", "page": "https://motdang.net/field/scenes/large-grey-abstract-creature-face-mural-on-building-side/", "credit": "NaN Peacock", "licence": "CC BY 4.0"}}, {"type": "Feature", "geometry": {"type": "Point", "coordinates": [98.993493, 18.792647]}, "properties": {"kind": "street-art", "title": "Faded painted smiling character face on ground-floor wall", "title_th": "ภาพวาดใบหน้ายิ้มจางบนผนังชั้นล่าง", "date": "2026-09-24", "photo": "https://nanobotco.github.io/field/photos/2026-09-24/ride-20260924-street-art-ae5727-384b.jpg", "page": "https://motdang.net/field/scenes/faded-painted-smiling-character-face-on-ground-floor/", "credit": "NaN Peacock", "licence": "CC BY 4.0"}}, {"type": "Feature", "geometry": {"type": "Point", "coordinates": [98.99159, 18.795195]}, "properties": {"kind": "street-art", "title": "Construction hoarding graffiti: KASPA/WASPA throw-up and tags", "title_th": "กราฟฟิตี้บนรั้วผ้าใบก่อสร้าง: ตัวอักษร KASPA/WASPA และลายเซ็นอื่นๆ", "date": "2026-09-24", "photo": "https://nanobotco.github.io/field/photos/2026-09-24/ride-20260924-street-art-ae5727-418.jpg", "page": "https://motdang.net/field/scenes/construction-hoarding-graffiti-kaspa-waspa-throw-up/", "credit": "NaN Peacock", "licence": "CC BY 4.0"}}, {"type": "Feature", "geometry": {"type": "Point", "coordinates": [98.987565, 18.795337]}, "properties": {"kind": "street-art", "title": "Shutter graffiti: stylized CHIANGMAI CITY tag with bubble tag below", "title_th": "กราฟฟิตี้บานเกล็ด: ตัวอักษร CHIANGMAI CITY สไตล์และลายเซ็นฟองสบู่ด้านล่าง", "date": "2026-09-24", "photo": "https://nanobotco.github.io/field/photos/2026-09-24/ride-20260924-street-art-ae5727-450.jpg", "page": "https://motdang.net/field/scenes/shutter-graffiti-stylized-chiangmai-city-tag-with-bubble/", "credit": "NaN Peacock", "licence": "CC BY 4.0"}}, {"type": "Feature", "geometry": {"type": "Point", "coordinates": [98.987565, 18.795337]}, "properties": {"kind": "street-art", "title": "Yellow building facade painted with white tribal-floral swirl mural", "title_th": "ผนังตึกสีเหลืองวาดลายเถาไม้ชนเผ่าสีขาว", "date": "2026-09-24", "photo": "https://nanobotco.github.io/field/photos/2026-09-24/ride-20260924-street-art-ae5727-450b.jpg", "page": "https://motdang.net/field/scenes/yellow-building-facade-painted-with-white-tribal-floral/", "credit": "NaN Peacock", "licence": "CC BY 4.0"}}, {"type": "Feature", "geometry": {"type": "Point", "coordinates": [98.979806, 18.79555]}, "properties": {"kind": "street-art", "title": "Corrugated fence graffiti: bubble tag with THC and HELON tags", "title_th": "กราฟฟิตี้รั้วสังกะสี: ตัวอักษรฟองสบู่ THC และลายเซ็น HELON", "date": "2026-09-24", "photo": "https://nanobotco.github.io/field/photos/2026-09-24/ride-20260924-street-art-ae5727-492.jpg", "page": "https://motdang.net/field/scenes/corrugated-fence-graffiti-bubble-tag-with-thc-and-helon/", "credit": "NaN Peacock", "licence": "CC BY 4.0"}}, {"type": "Feature", "geometry": {"type": "Point", "coordinates": [98.979432, 18.795555]}, "properties": {"kind": "street-art", "title": "Blue bubble-letter throw-up tag on wall", "title_th": "กราฟฟิตี้ตัวอักษรฟองสบู่สีน้ำเงินบนกำแพง", "date": "2026-09-24", "photo": "https://nanobotco.github.io/field/photos/2026-09-24/ride-20260924-street-art-ae5727-494.jpg", "page": "https://motdang.net/field/scenes/blue-bubble-letter-throw-up-tag-on-wall/", "credit": "NaN Peacock", "licence": "CC BY 4.0"}}, {"type": "Feature", "geometry": {"type": "Point", "coordinates": [98.978423, 18.791803]}, "properties": {"kind": "street-art", "title": "White-outline bubble tag on dark shopfront shutter", "title_th": "กราฟฟิตี้ตัวอักษรฟองสบู่เส้นขอบขาวบนบานเกล็ดที่มืด", "date": "2026-09-24", "photo": "https://nanobotco.github.io/field/photos/2026-09-24/ride-20260924-street-art-ae5727-518.jpg", "page": "https://motdang.net/field/scenes/white-outline-bubble-tag-on-dark-shopfront-shutter/", "credit": "NaN Peacock", "licence": "CC BY 4.0"}}, {"type": "Feature", "geometry": {"type": "Point", "coordinates": [98.978279, 18.788222]}, "properties": {"kind": "street-art", "title": "Dense graffiti-covered shophouse wall and shutter", "title_th": "ผนังและบานเกล็ดตึกแถวที่เต็มไปด้วยกราฟฟิตี้", "date": "2026-09-24", "photo": "https://nanobotco.github.io/field/photos/2026-09-24/ride-20260924-street-art-ae5727-540.jpg", "page": "https://motdang.net/field/scenes/dense-graffiti-covered-shophouse-wall-and-shutter/", "credit": "NaN Peacock", "licence": "CC BY 4.0"}}, {"type": "Feature", "geometry": {"type": "Point", "coordinates": [98.999033, 18.758805]}, "properties": {"kind": "street-art", "title": "Bubble-letter tags on a corrugated fence", "title_th": "แท็กตัวอักษรฟองสบู่บนรั้วสังกะสี", "date": "2026-09-24", "photo": "https://nanobotco.github.io/field/photos/2026-09-24/ride-20260924-street-art-ae5727-777.jpg", "page": "https://motdang.net/field/scenes/bubble-letter-tags-on-a-corrugated-fence/", "credit": "NaN Peacock", "licence": "CC BY 4.0"}}, {"type": "Feature", "geometry": {"type": "Point", "coordinates": [99.00089, 18.757179]}, "properties": {"kind": "street-art", "title": "Faint white spray tag on a compound wall", "title_th": "แท็กสีขาวจางบนกำแพงรั้ว", "date": "2026-09-24", "photo": "https://nanobotco.github.io/field/photos/2026-09-24/ride-20260924-street-art-ae5727-787.jpg", "page": "https://motdang.net/field/scenes/faint-white-spray-tag-on-a-compound-wall/", "credit": "NaN Peacock", "licence": "CC BY 4.0"}}, {"type": "Feature", "geometry": {"type": "Point", "coordinates": [99.001147, 18.757077]}, "properties": {"kind": "street-art", "title": "White tag on a low wall under trees", "title_th": "แท็กสีขาวบนกำแพงเตี้ยใต้ร่มไม้", "date": "2026-09-24", "photo": "https://nanobotco.github.io/field/photos/2026-09-24/ride-20260924-street-art-ae5727-788.jpg", "page": "https://motdang.net/field/scenes/white-tag-on-a-low-wall-under-trees/", "credit": "NaN Peacock", "licence": "CC BY 4.0"}}, {"type": "Feature", "geometry": {"type": "Point", "coordinates": [99.026883, 18.76384]}, "properties": {"kind": "street-art", "title": "Tags on a shuttered shopfront", "title_th": "แท็กบนบานเกล็ดม้วนร้านค้า", "date": "2026-09-24", "photo": "https://nanobotco.github.io/field/photos/2026-09-24/ride-20260924-street-art-ae5727-880.jpg", "page": "https://motdang.net/field/scenes/tags-on-a-shuttered-shopfront/", "credit": "NaN Peacock", "licence": "CC BY 4.0"}}, {"type": "Feature", "geometry": {"type": "Point", "coordinates": [99.038983, 18.764428]}, "properties": {"kind": "street-art", "title": "Bubble tags on a roller shutter", "title_th": "แท็กฟองสบู่บนบานเกล็ดม้วน", "date": "2026-09-24", "photo": "https://nanobotco.github.io/field/photos/2026-09-24/ride-20260924-street-art-ae5727-924.jpg", "page": "https://motdang.net/field/scenes/bubble-tags-on-a-roller-shutter/", "credit": "NaN Peacock", "licence": "CC BY 4.0"}}, {"type": "Feature", "geometry": {"type": "Point", "coordinates": [99.039547, 18.766243]}, "properties": {"kind": "street-art", "title": "Spray-painted vine leaves on a construction fence", "title_th": "ใบไม้เลื้อยพ่นสีบนรั้วไซต์ก่อสร้าง", "date": "2026-09-24", "photo": "https://nanobotco.github.io/field/photos/2026-09-24/ride-20260924-street-art-ae5727-932.jpg", "page": "https://motdang.net/field/scenes/spray-painted-vine-leaves-on-a-construction-fence/", "credit": "NaN Peacock", "licence": "CC BY 4.0"}}, {"type": "Feature", "geometry": {"type": "Point", "coordinates": [98.988986, 18.765959]}, "properties": {"kind": "market", "title": "Roadside food stalls under tin roofs", "title_th": "แผงขายอาหารริมทางใต้หลังคาสังกะสี", "date": "2026-09-23", "photo": "https://nanobotco.github.io/field/photos/2026-09-23/ride-20260923-market-ab2131-160.jpg", "page": "https://motdang.net/field/scenes/roadside-food-stalls-under-tin-roofs/", "credit": "NaN Peacock", "licence": "CC BY 4.0"}}, {"type": "Feature", "geometry": {"type": "Point", "coordinates": [99.025085, 18.763029]}, "properties": {"kind": "street-art", "title": "Tag sprayed twice on a fence panel", "title_th": "แท็กกราฟฟิตี้ฉีดซ้ำสองครั้งบนแผงรั้ว", "date": "2026-09-23", "photo": "https://nanobotco.github.io/field/photos/2026-09-23/ride-20260923-street-art-ab2131-054.jpg", "page": "https://motdang.net/field/scenes/tag-sprayed-twice-on-a-fence-panel/", "credit": "NaN Peacock", "licence": "CC BY 4.0"}}, {"type": "Feature", "geometry": {"type": "Point", "coordinates": [98.996606, 18.760686]}, "properties": {"kind": "street-art", "title": "Blue-and-white bubble-letter throw-up on a shophouse wall", "title_th": "กราฟฟิตี้ตัวหนังสือฟองสีฟ้าขาวบนกำแพงตึกแถว", "date": "2026-09-23", "photo": "https://nanobotco.github.io/field/photos/2026-09-23/ride-20260923-street-art-ab2131-131.jpg", "page": "https://motdang.net/field/scenes/blue-and-white-bubble-letter-throw-up-on-a-shophouse/", "credit": "NaN Peacock", "licence": "CC BY 4.0"}}, {"type": "Feature", "geometry": {"type": "Point", "coordinates": [98.996606, 18.760686]}, "properties": {"kind": "street-art", "title": "White spray tag on a blank grey billboard face", "title_th": "แท็กสีขาวบนป้ายโฆษณาสีเทาว่างเปล่า", "date": "2026-09-23", "photo": "https://nanobotco.github.io/field/photos/2026-09-23/ride-20260923-street-art-ab2131-131b.jpg", "page": "https://motdang.net/field/scenes/white-spray-tag-on-a-blank-grey-billboard-face/", "credit": "NaN Peacock", "licence": "CC BY 4.0"}}, {"type": "Feature", "geometry": {"type": "Point", "coordinates": [98.988005, 18.76629]}, "properties": {"kind": "street-art", "title": "Green bubble-tag piece with a cartoon face beside it", "title_th": "กราฟฟิตี้ตัวหนังสือสีเขียวพร้อมใบหน้าการ์ตูนข้างกัน", "date": "2026-09-23", "photo": "https://nanobotco.github.io/field/photos/2026-09-23/ride-20260923-street-art-ab2131-163.jpg", "page": "https://motdang.net/field/scenes/green-bubble-tag-piece-with-a-cartoon-face-beside-it/", "credit": "NaN Peacock", "licence": "CC BY 4.0"}}, {"type": "Feature", "geometry": {"type": "Point", "coordinates": [98.984944, 18.767295]}, "properties": {"kind": "street-art", "title": "Painted owl-eyes face over a car-repair yard wall", "title_th": "จิตรกรรมใบหน้านกฮูกดวงตาโตบนกำแพงอู่ซ่อมรถ", "date": "2026-09-23", "photo": "https://nanobotco.github.io/field/photos/2026-09-23/ride-20260923-street-art-ab2131-173.jpg", "page": "https://motdang.net/field/scenes/painted-owl-eyes-face-over-a-car-repair-yard-wall/", "credit": "NaN Peacock", "licence": "CC BY 4.0"}}, {"type": "Feature", "geometry": {"type": "Point", "coordinates": [98.976696, 18.776675]}, "properties": {"kind": "street-art", "title": "White throw-up tag on a rolling shutter", "title_th": "แท็กตัวหนังสือสีขาวบนบานเกล็ดเหล็ก", "date": "2026-09-23", "photo": "https://nanobotco.github.io/field/photos/2026-09-23/ride-20260923-street-art-ab2131-224.jpg", "page": "https://motdang.net/field/scenes/white-throw-up-tag-on-a-rolling-shutter/", "credit": "NaN Peacock", "licence": "CC BY 4.0"}}, {"type": "Feature", "geometry": {"type": "Point", "coordinates": [98.977161, 18.779719]}, "properties": {"kind": "street-art", "title": "Graffiti tags on an abandoned shophouse", "title_th": "กราฟฟิตี้บนตึกแถวร้าง", "date": "2026-09-23", "photo": "https://nanobotco.github.io/field/photos/2026-09-23/ride-20260923-street-art-ab2131-233.jpg", "page": "https://motdang.net/field/scenes/graffiti-tags-on-an-abandoned-shophouse/", "credit": "NaN Peacock", "licence": "CC BY 4.0"}}, {"type": "Feature", "geometry": {"type": "Point", "coordinates": [98.977583, 18.782644]}, "properties": {"kind": "street-art", "title": "Spray tags along a roadside fence", "title_th": "แท็กสเปรย์ตามรั้วริมถนน", "date": "2026-09-23", "photo": "https://nanobotco.github.io/field/photos/2026-09-23/ride-20260923-street-art-ab2131-242.jpg", "page": "https://motdang.net/field/scenes/spray-tags-along-a-roadside-fence/", "credit": "NaN Peacock", "licence": "CC BY 4.0"}}, {"type": "Feature", "geometry": {"type": "Point", "coordinates": [98.9776, 18.782959]}, "properties": {"kind": "street-art", "title": "Colourful graffiti pieces on an abandoned building", "title_th": "กราฟฟิตี้สีสันบนอาคารร้าง", "date": "2026-09-23", "photo": "https://nanobotco.github.io/field/photos/2026-09-23/ride-20260923-street-art-ab2131-243.jpg", "page": "https://motdang.net/field/scenes/colourful-graffiti-pieces-on-an-abandoned-building/", "credit": "NaN Peacock", "licence": "CC BY 4.0"}}, {"type": "Feature", "geometry": {"type": "Point", "coordinates": [98.977617, 18.783258]}, "properties": {"kind": "street-art", "title": "Large bubble-letter piece on a teal wall", "title_th": "งานตัวหนังสือขนาดใหญ่บนกำแพงสีเขียวอมฟ้า", "date": "2026-09-23", "photo": "https://nanobotco.github.io/field/photos/2026-09-23/ride-20260923-street-art-ab2131-244.jpg", "page": "https://motdang.net/field/scenes/large-bubble-letter-piece-on-a-teal-wall/", "credit": "NaN Peacock", "licence": "CC BY 4.0"}}, {"type": "Feature", "geometry": {"type": "Point", "coordinates": [98.978361, 18.790763]}, "properties": {"kind": "street-art", "title": "Small tag with a cartoon hand", "title_th": "แท็กเล็กพร้อมลายการ์ตูนมือ", "date": "2026-09-23", "photo": "https://nanobotco.github.io/field/photos/2026-09-23/ride-20260923-street-art-ab2131-289.jpg", "page": "https://motdang.net/field/scenes/small-tag-with-a-cartoon-hand/", "credit": "NaN Peacock", "licence": "CC BY 4.0"}}, {"type": "Feature", "geometry": {"type": "Point", "coordinates": [98.978365, 18.790479]}, "properties": {"kind": "street-art", "title": "Geometric mosaic mural in a side alley", "title_th": "ภาพวาดโมเสกเรขาคณิตในซอย", "date": "2026-09-23", "photo": "https://nanobotco.github.io/field/photos/2026-09-23/ride-20260923-street-art-ab2131-291.jpg", "page": "https://motdang.net/field/scenes/geometric-mosaic-mural-in-a-side-alley/", "credit": "NaN Peacock", "licence": "CC BY 4.0"}}, {"type": "Feature", "geometry": {"type": "Point", "coordinates": [98.982205, 18.79127]}, "properties": {"kind": "street-art", "title": "Large tag on a metal fence, partly covered", "title_th": "แท็กตัวใหญ่บนรั้วสังกะสี ถูกป้ายบังบางส่วน", "date": "2026-09-23", "photo": "https://nanobotco.github.io/field/photos/2026-09-23/ride-20260923-street-art-ab2131-349.jpg", "page": "https://motdang.net/field/scenes/large-tag-on-a-metal-fence-partly-covered/", "credit": "NaN Peacock", "licence": "CC BY 4.0"}}, {"type": "Feature", "geometry": {"type": "Point", "coordinates": [98.982295, 18.793133]}, "properties": {"kind": "street-art", "title": "Twin bubble-letter tags on shopfront glass", "title_th": "แท็กตัวอักษรคู่บนกระจกหน้าร้าน", "date": "2026-09-23", "photo": "https://nanobotco.github.io/field/photos/2026-09-23/ride-20260923-street-art-ab2131-368.jpg", "page": "https://motdang.net/field/scenes/twin-bubble-letter-tags-on-shopfront-glass/", "credit": "NaN Peacock", "licence": "CC BY 4.0"}}, {"type": "Feature", "geometry": {"type": "Point", "coordinates": [98.982295, 18.793133]}, "properties": {"kind": "street-art", "title": "Small tag on an electrical panel", "title_th": "แท็กเล็กบนตู้ไฟฟ้า", "date": "2026-09-23", "photo": "https://nanobotco.github.io/field/photos/2026-09-23/ride-20260923-street-art-ab2131-368b.jpg", "page": "https://motdang.net/field/scenes/small-tag-on-an-electrical-panel/", "credit": "NaN Peacock", "licence": "CC BY 4.0"}}]}