{"type": "FeatureCollection", "features": [{"type": "Feature", "properties": {"session": "2026-09-27", "metres_shown": 14673, "metres_ridden": 10826, "note": "ends trimmed"}, "geometry": {"type": "LineString", "coordinates": [[99.047877, 18.785769], [99.047877, 18.785772], [99.047877, 18.785773], [99.047876, 18.785773], [99.047876, 18.785772], [99.047876, 18.785772], [99.047875, 18.785774], [99.047873, 18.785774], [99.04787, 18.785774], [99.047869, 18.785774], [99.047868, 18.785774], [99.047868, 18.785774], [99.047866, 18.785775], [99.047866, 18.785776], [99.047866, 18.785776], [99.047864, 18.785774], [99.04786, 18.785772], [99.047856, 18.785769], [99.047851, 18.785768], [99.047849, 18.785766], [99.047845, 18.785768], [99.047841, 18.785774], [99.047837, 18.785776], [99.047833, 18.785779], [99.047828, 18.785783], [99.047825, 18.785786], [99.047823, 18.785794], [99.047821, 18.785799], [99.047827, 18.785797], [99.047826, 18.785799], [99.047823, 18.785803], [99.047819, 18.785808], [99.047815, 18.785812], [99.047808, 18.785818], [99.047795, 18.785816], [99.047788, 18.785824], [99.047788, 18.785834], [99.047791, 18.78584], [99.047796, 18.785843], [99.047799, 18.785848], [99.047802, 18.785855], [99.047801, 18.785863], [99.047799, 18.785869], [99.0478, 18.785873], [99.047798, 18.785873], [99.047798, 18.78587], [99.047796, 18.78587], [99.047795, 18.785872], [99.047795, 18.785871], [99.047795, 18.785873], [99.047798, 18.785874], [99.0478, 18.785877], [99.047802, 18.785879], [99.047804, 18.785878], [99.047804, 18.785879], [99.047803, 18.78588], [99.047802, 18.78588], [99.047802, 18.78588], [99.0478, 18.78588], [99.0478, 18.78588], [99.047799, 18.785879], [99.047798, 18.785878], [99.047798, 18.785879], [99.047799, 18.785879], [99.0478, 18.785881], [99.047805, 18.785884], [99.047813, 18.785887], [99.04782, 18.785888], [99.047829, 18.785891], [99.047837, 18.785892], [99.047846, 18.785894], [99.047855, 18.785893], [99.047862, 18.785891], [99.04787, 18.785886], [99.047877, 18.785881], [99.047883, 18.785876], [99.04789, 18.785873], [99.047897, 18.785871], [99.047902, 18.785869], [99.047907, 18.785866], [99.047911, 18.785865], [99.047915, 18.785865], [99.04792, 18.785863], [99.047925, 18.785861], [99.047931, 18.785859], [99.047938, 18.785856], [99.047947, 18.785854], [99.047956, 18.78585], [99.047966, 18.785846], [99.047976, 18.785842], [99.047989, 18.785836], [99.048004, 18.785832], [99.048019, 18.785828], [99.048032, 18.785827], [99.048049, 18.785825], [99.048066, 18.785824], [99.048085, 18.785824], [99.048105, 18.785827], [99.048147, 18.78584], [99.048206, 18.785859], [99.048262, 18.785878], [99.048315, 18.785899], [99.048368, 18.785918], [99.048418, 18.785936], [99.048463, 18.785952], [99.048508, 18.785968], [99.048549, 18.785986], [99.048588, 18.786004], [99.048627, 18.786016], [99.048664, 18.786028], [99.048703, 18.786039], [99.048743, 18.786051], [99.048783, 18.78606], [99.048827, 18.786073], [99.048867, 18.786087], [99.048908, 18.786104], [99.04895, 18.786123], [99.04899, 18.786141], [99.049027, 18.786159], [99.049061, 18.786176], [99.049078, 18.786185], [99.049096, 18.786193], [99.049113, 18.786202], [99.049129, 18.78621], [99.049145, 18.786218], [99.04916, 18.786227], [99.049176, 18.786232], [99.04919, 18.78624], [99.049201, 18.786246], [99.04921, 18.786251], [99.049215, 18.786256], [99.049219, 18.786258], [99.049219, 18.786259], [99.04922, 18.786258], [99.04922, 18.786258], [99.049221, 18.786258], [99.049221, 18.786258], [99.04922, 18.786258], [99.049219, 18.786257], [99.04922, 18.786257], [99.049222, 18.786257], [99.049226, 18.786258], [99.049231, 18.786259], [99.04924, 18.786261], [99.04925, 18.786259], [99.049263, 18.786256], [99.04928, 18.786248], [99.049297, 18.786237], [99.04934, 18.786202], [99.049387, 18.786152], [99.049437, 18.786095], [99.049488, 18.786035], [99.049541, 18.785972], [99.049592, 18.785908], [99.049642, 18.785839], [99.049691, 18.785765], [99.049736, 18.785692], [99.049777, 18.785622], [99.049815, 18.785557], [99.049856, 18.785494], [99.049899, 18.785434], [99.049942, 18.78538], [99.049985, 18.785324], [99.050023, 18.785272], [99.050057, 18.785222], [99.050088, 18.785168], [99.050113, 18.785111], [99.050133, 18.78505], [99.050149, 18.784986], [99.050163, 18.784921], [99.050178, 18.784855], [99.050191, 18.784794], [99.050204, 18.784734], [99.050218, 18.784668], [99.050235, 18.784595], [99.050252, 18.78452], [99.050266, 18.784447], [99.050281, 18.784373], [99.050295, 18.7843], [99.05031, 18.78423], [99.050333, 18.784163], [99.050365, 18.784097], [99.050401, 18.784031], [99.050438, 18.783964], [99.05047, 18.783898], [99.050499, 18.783831], [99.050529, 18.783759], [99.05056, 18.783687], [99.050599, 18.783614], [99.05064, 18.783542], [99.050679, 18.783467], [99.050714, 18.783392], [99.050746, 18.783314], [99.050773, 18.783238], [99.050797, 18.783162], [99.050819, 18.783081], [99.05084, 18.782991], [99.05086, 18.782901], [99.050876, 18.782818], [99.050894, 18.782736], [99.050911, 18.782657], [99.050929, 18.782577], [99.05095, 18.782496], [99.050971, 18.782419], [99.050992, 18.782344], [99.051012, 18.782271], [99.05103, 18.782202], [99.051049, 18.782134], [99.051066, 18.782072], [99.05108, 18.782013], [99.051093, 18.781955], [99.051102, 18.781899], [99.051109, 18.781846], [99.051113, 18.781796], [99.051118, 18.781747], [99.051125, 18.781701], [99.051134, 18.781652], [99.051144, 18.781598], [99.051155, 18.781547], [99.051166, 18.781499], [99.051178, 18.781449], [99.05119, 18.781399], [99.051201, 18.78135], [99.051212, 18.781299], [99.051222, 18.781247], [99.051233, 18.781193], [99.051249, 18.781132], [99.051267, 18.781063], [99.051286, 18.780986], [99.051304, 18.78091], [99.051322, 18.780837], [99.05134, 18.780762], [99.051357, 18.78069], [99.051372, 18.780621], [99.051388, 18.780554], [99.051403, 18.780491], [99.051416, 18.78043], [99.051427, 18.780363], [99.051435, 18.7803], [99.051445, 18.780241], [99.051458, 18.780177], [99.05147, 18.780108], [99.051482, 18.780037], [99.051497, 18.779962], [99.051513, 18.779882], [99.051527, 18.779797], [99.05154, 18.779707], [99.051551, 18.779616], [99.05156, 18.779528], [99.051568, 18.779443], [99.051575, 18.779365], [99.051582, 18.779291], [99.051589, 18.779224], [99.051596, 18.77916], [99.051603, 18.779098], [99.051609, 18.779037], [99.051616, 18.778976], [99.051621, 18.778918], [99.051625, 18.778866], [99.051631, 18.778819], [99.051636, 18.778774], [99.051643, 18.778733], [99.05165, 18.778694], [99.051657, 18.778658], [99.05166, 18.778641], [99.051662, 18.778627], [99.051664, 18.778614], [99.051666, 18.778602], [99.051669, 18.778592], [99.051674, 18.778582], [99.051678, 18.778573], [99.051683, 18.778565], [99.051688, 18.778558], [99.051693, 18.778551], [99.051699, 18.778545], [99.051704, 18.778539], [99.051711, 18.778535], [99.051719, 18.778532], [99.051727, 18.77853], [99.051735, 18.77853], [99.051743, 18.77853], [99.05175, 18.778533], [99.051757, 18.778537], [99.051762, 18.778543], [99.051766, 18.778549], [99.051767, 18.778556], [99.051766, 18.778563], [99.051764, 18.778569], [99.051759, 18.778574], [99.051754, 18.778579], [99.051747, 18.778582], [99.05174, 18.778585], [99.051731, 18.778586], [99.051723, 18.778585], [99.051715, 18.778582], [99.051707, 18.77858], [99.051701, 18.778576], [99.051696, 18.778574], [99.051692, 18.778572], [99.051676, 18.778573], [99.05167, 18.778576], [99.051665, 18.778577], [99.051658, 18.77858], [99.05165, 18.778586], [99.05164, 18.778595], [99.051628, 18.778611], [99.051619, 18.778632], [99.051607, 18.778681], [99.0516, 18.778735], [99.051593, 18.778799], [99.051586, 18.778876], [99.051578, 18.778963], [99.051569, 18.779051], [99.051562, 18.779136], [99.051554, 18.779221], [99.051546, 18.779308], [99.051538, 18.779393], [99.051528, 18.779478], [99.05152, 18.779564], [99.051509, 18.779649], [99.051498, 18.779734], [99.051483, 18.779819], [99.051467, 18.779903], [99.051452, 18.779984], [99.051437, 18.780058], [99.051423, 18.780128], [99.05141, 18.780199], [99.0514, 18.780272], [99.051392, 18.78034], [99.051384, 18.780407], [99.051374, 18.780474], [99.051359, 18.780542], [99.051342, 18.780618], [99.051322, 18.780692], [99.051305, 18.780759], [99.051287, 18.780825], [99.051269, 18.780893], [99.051253, 18.780965], [99.051239, 18.78104], [99.051226, 18.781112], [99.051211, 18.781183], [99.051194, 18.781255], [99.051177, 18.781327], [99.051159, 18.781396], [99.051141, 18.781466], [99.051124, 18.781536], [99.051109, 18.781602], [99.051097, 18.781662], [99.051087, 18.781719], [99.051079, 18.781776], [99.051069, 18.781834], [99.051058, 18.781889], [99.05105, 18.781942], [99.05104, 18.781998], [99.051025, 18.782061], [99.051009, 18.782132], [99.050994, 18.782203], [99.050978, 18.782271], [99.050963, 18.782341], [99.050947, 18.782414], [99.05093, 18.782486], [99.05091, 18.782558], [99.050889, 18.78263], [99.050871, 18.782697], [99.050855, 18.782757], [99.050842, 18.782812], [99.050831, 18.782867], [99.050821, 18.782923], [99.050812, 18.782974], [99.050804, 18.78302], [99.050796, 18.783057], [99.050793, 18.783073], [99.050789, 18.783089], [99.050784, 18.783106], [99.050778, 18.783124], [99.050766, 18.783168], [99.050748, 18.783222], [99.050726, 18.783285], [99.050702, 18.783347], [99.05068, 18.783403], [99.050658, 18.783447], [99.050634, 18.783477], [99.050618, 18.783486], [99.050601, 18.783492], [99.050582, 18.783495], [99.050561, 18.783499], [99.050506, 18.783507], [99.050442, 18.783518], [99.050377, 18.783531], [99.050308, 18.783544], [99.050235, 18.783553], [99.050166, 18.783559], [99.050097, 18.783562], [99.050033, 18.783562], [99.049973, 18.783558], [99.049918, 18.783553], [99.049866, 18.78355], [99.049815, 18.783548], [99.049767, 18.783547], [99.049729, 18.783545], [99.049712, 18.783543], [99.049696, 18.783542], [99.049682, 18.783541], [99.049669, 18.783539], [99.049659, 18.783537], [99.049651, 18.783535], [99.049646, 18.783531], [99.049676, 18.783544], [99.049683, 18.783545], [99.049694, 18.783546], [99.049708, 18.783549], [99.049725, 18.783551], [99.049744, 18.783553], [99.049763, 18.783554], [99.049806, 18.783556], [99.049857, 18.783558], [99.049912, 18.783561], [99.049965, 18.783565], [99.050021, 18.783568], [99.050077, 18.783568], [99.050135, 18.783565], [99.050193, 18.783561], [99.050249, 18.783555], [99.050301, 18.783547], [99.050351, 18.783538], [99.050398, 18.78353], [99.050444, 18.78352], [99.050486, 18.783512], [99.050505, 18.783508], [99.050521, 18.783506], [99.050536, 18.783503], [99.050549, 18.783502], [99.05056, 18.783502], [99.050569, 18.783503], [99.050577, 18.783504], [99.050582, 18.783507], [99.050587, 18.783509], [99.050589, 18.783511], [99.05059, 18.783514], [99.050592, 18.783518], [99.050592, 18.783525], [99.050591, 18.783534], [99.050588, 18.783547], [99.050582, 18.783561], [99.050573, 18.783578], [99.050564, 18.783594], [99.050555, 18.78361], [99.050546, 18.783628], [99.050526, 18.783666], [99.050509, 18.783703], [99.050492, 18.783743], [99.050476, 18.783782], [99.05046, 18.78382], [99.05044, 18.783865], [99.050413, 18.783918], [99.050387, 18.783971], [99.050361, 18.784024], [99.050338, 18.784071], [99.050315, 18.784114], [99.050292, 18.784158], [99.050273, 18.784207], [99.050257, 18.784259], [99.050245, 18.78432], [99.050235, 18.784385], [99.050224, 18.78445], [99.050209, 18.784519], [99.050191, 18.784592], [99.050172, 18.784668], [99.050156, 18.78474], [99.050143, 18.78481], [99.050128, 18.784878], [99.050115, 18.784944], [99.050105, 18.785006], [99.050094, 18.785062], [99.050079, 18.785115], [99.050055, 18.785165], [99.050027, 18.785209], [99.049998, 18.785248], [99.049964, 18.785289], [99.049924, 18.785341], [99.049881, 18.785402], [99.049837, 18.785472], [99.049797, 18.785541], [99.049759, 18.785605], [99.049721, 18.785668], [99.049681, 18.785733], [99.049645, 18.785793], [99.049607, 18.785848], [99.049568, 18.785899], [99.049527, 18.785948], [99.049486, 18.785995], [99.049447, 18.786039], [99.049411, 18.786081], [99.049379, 18.786119], [99.049348, 18.786156], [99.049319, 18.786191], [99.049287, 18.786229], [99.049248, 18.786277], [99.049208, 18.786336], [99.049167, 18.786401], [99.049129, 18.786464], [99.049089, 18.786524], [99.049049, 18.78658], [99.049005, 18.78664], [99.048956, 18.786702], [99.048909, 18.786756], [99.048865, 18.786805], [99.048821, 18.786851], [99.048779, 18.786897], [99.048743, 18.78694], [99.048712, 18.78698], [99.048683, 18.787019], [99.048655, 18.787055], [99.048627, 18.787095], [99.04859, 18.787145], [99.048544, 18.787198], [99.048494, 18.787253], [99.048444, 18.787318], [99.048396, 18.787395], [99.048355, 18.787471], [99.048319, 18.787545], [99.048288, 18.78762], [99.048259, 18.787692], [99.048233, 18.787762], [99.048208, 18.787829], [99.048185, 18.787887], [99.048164, 18.787935], [99.048143, 18.787964], [99.048133, 18.787971], [99.048121, 18.787975], [99.048108, 18.787976], [99.048096, 18.787974], [99.048082, 18.787971], [99.048068, 18.787967], [99.048051, 18.787961], [99.04803, 18.787954], [99.047972, 18.787934], [99.047893, 18.787905], [99.047799, 18.78787], [99.0477, 18.787832], [99.047599, 18.787791], [99.047501, 18.787754], [99.047407, 18.787722], [99.047315, 18.787691], [99.047224, 18.787659], [99.04713, 18.787629], [99.047029, 18.787597], [99.046927, 18.787564], [99.046828, 18.787535], [99.046732, 18.787505], [99.046637, 18.787476], [99.046544, 18.787444], [99.046452, 18.787414], [99.046357, 18.787385], [99.046261, 18.787355], [99.04617, 18.787326], [99.046084, 18.787298], [99.045996, 18.787268], [99.045907, 18.787238], [99.045823, 18.787211], [99.045745, 18.787187], [99.045674, 18.787165], [99.04561, 18.787145], [99.045557, 18.787127], [99.045512, 18.787111], [99.045472, 18.7871], [99.045456, 18.787096], [99.045441, 18.787092], [99.045428, 18.787088], [99.045416, 18.787086], [99.045401, 18.787084], [99.045385, 18.787082], [99.045367, 18.78708], [99.045347, 18.787075], [99.045308, 18.787065], [99.045265, 18.787051], [99.045204, 18.787032], [99.045125, 18.787005], [99.045034, 18.786974], [99.044931, 18.786938], [99.044827, 18.786903], [99.044724, 18.786871], [99.044624, 18.78684], [99.044527, 18.786811], [99.044434, 18.786784], [99.044345, 18.786759], [99.044262, 18.786736], [99.044184, 18.786716], [99.044106, 18.786694], [99.044033, 18.786674], [99.043965, 18.786657], [99.043901, 18.786641], [99.043847, 18.786627], [99.043805, 18.786618], [99.043768, 18.786623], [99.043751, 18.78663], [99.043737, 18.786641], [99.043725, 18.786654], [99.043716, 18.786671], [99.0437, 18.786714], [99.043688, 18.786768], [99.043679, 18.786822], [99.043671, 18.786881], [99.043666, 18.786941], [99.043658, 18.786996], [99.043649, 18.787047], [99.043639, 18.787094], [99.043623, 18.787138], [99.043597, 18.787178], [99.043557, 18.787209], [99.04351, 18.787235], [99.043463, 18.787257], [99.043412, 18.787278], [99.043364, 18.787298], [99.043321, 18.787317], [99.043278, 18.787336], [99.043234, 18.787349], [99.043186, 18.787353], [99.043133, 18.78735], [99.043079, 18.787344], [99.043019, 18.787334], [99.042954, 18.787322], [99.042889, 18.787311], [99.042823, 18.787302], [99.042754, 18.787292], [99.042686, 18.787282], [99.042617, 18.787269], [99.042542, 18.787257], [99.042459, 18.787243], [99.042376, 18.787229], [99.042288, 18.787215], [99.042194, 18.787201], [99.0421, 18.787187], [99.042005, 18.787173], [99.041908, 18.787158], [99.041809, 18.787144], [99.041715, 18.787133], [99.041628, 18.787125], [99.041549, 18.787116], [99.041478, 18.787106], [99.041414, 18.787097], [99.041356, 18.787088], [99.041305, 18.787079], [99.041262, 18.787069], [99.041245, 18.787064], [99.041232, 18.78706], [99.041223, 18.787056], [99.041218, 18.787053], [99.041217, 18.787053], [99.041217, 18.787053], [99.041217, 18.787053], [99.041217, 18.787052], [99.041217, 18.787052], [99.041217, 18.787052], [99.041217, 18.787051], [99.041217, 18.787051], [99.041217, 18.78705], [99.041217, 18.787047], [99.041216, 18.787043], [99.041216, 18.787037], [99.041218, 18.78703], [99.041221, 18.787022], [99.041226, 18.787015], [99.041234, 18.78701], [99.041243, 18.787007], [99.041255, 18.787007], [99.041269, 18.787008], [99.041286, 18.787012], [99.041302, 18.787016], [99.041317, 18.787021], [99.041332, 18.787028], [99.04135, 18.787037], [99.041394, 18.78706], [99.041448, 18.787078], [99.041519, 18.787094], [99.041613, 18.78711], [99.041718, 18.78713], [99.041834, 18.78716], [99.04195, 18.787188], [99.042061, 18.787209], [99.04217, 18.787229], [99.042274, 18.787249], [99.042372, 18.787267], [99.04247, 18.787284], [99.042562, 18.787302], [99.042647, 18.78732], [99.042722, 18.787335], [99.042781, 18.787344], [99.042824, 18.787343], [99.042842, 18.787339], [99.042857, 18.787332], [99.04287, 18.787324], [99.04288, 18.787317], [99.04289, 18.787312], [99.042899, 18.787308], [99.042906, 18.787304], [99.042911, 18.787299], [99.042914, 18.787294], [99.042916, 18.787287], [99.042917, 18.787281], [99.042916, 18.787274], [99.042915, 18.787264], [99.042912, 18.787253], [99.042908, 18.787241], [99.042906, 18.787227], [99.042903, 18.787211], [99.042901, 18.787193], [99.042899, 18.78715], [99.042895, 18.787103], [99.042891, 18.787054], [99.042888, 18.787006], [99.042887, 18.786959], [99.042886, 18.786913], [99.042886, 18.78687], [99.042884, 18.78683], [99.042883, 18.786794], [99.042883, 18.786777], [99.042884, 18.78676], [99.042886, 18.786742], [99.042887, 18.786721], [99.042889, 18.786676], [99.042893, 18.786629], [99.042896, 18.786576], [99.042901, 18.78652], [99.042907, 18.78647], [99.042917, 18.786424], [99.042928, 18.786379], [99.042941, 18.786335], [99.042954, 18.786285], [99.042969, 18.78623], [99.042981, 18.786174], [99.042991, 18.786114], [99.043002, 18.786058], [99.043011, 18.786006], [99.04302, 18.785954], [99.043034, 18.7859], [99.04305, 18.785845], [99.043072, 18.78579], [99.043099, 18.785738], [99.043132, 18.78569], [99.043172, 18.785642], [99.04322, 18.785591], [99.043267, 18.785546], [99.043313, 18.785506], [99.043363, 18.785473], [99.043419, 18.785441], [99.043478, 18.785405], [99.043535, 18.785366], [99.043584, 18.785316], [99.04363, 18.785257], [99.043668, 18.785191], [99.043697, 18.785117], [99.043722, 18.78504], [99.043748, 18.784957], [99.043781, 18.784869], [99.043817, 18.784781], [99.043852, 18.784695], [99.043881, 18.784613], [99.043905, 18.784531], [99.04392, 18.784447], [99.043929, 18.784361], [99.04394, 18.78427], [99.043955, 18.784179], [99.043977, 18.784085], [99.044004, 18.783991], [99.044031, 18.783902], [99.044055, 18.783819], [99.044074, 18.783743], [99.044087, 18.783684], [99.044097, 18.783636], [99.044101, 18.78358], [99.044107, 18.783519], [99.044112, 18.783463], [99.044115, 18.783414], [99.044117, 18.783369], [99.044113, 18.783332], [99.044107, 18.783316], [99.044098, 18.783302], [99.044088, 18.78329], [99.044075, 18.78328], [99.044062, 18.783273], [99.044047, 18.783268], [99.044031, 18.783264], [99.044016, 18.783262], [99.044001, 18.783261], [99.043986, 18.783261], [99.04397, 18.783261], [99.043953, 18.78326], [99.043933, 18.783259], [99.043911, 18.78326], [99.043865, 18.783262], [99.043813, 18.783262], [99.043755, 18.783262], [99.043697, 18.783259], [99.043633, 18.78325], [99.043569, 18.783236], [99.043511, 18.783223], [99.043455, 18.783209], [99.043395, 18.783196], [99.043341, 18.783183], [99.043292, 18.783169], [99.043249, 18.783146], [99.043211, 18.78311], [99.043177, 18.783063], [99.043149, 18.783013], [99.043126, 18.782958], [99.043114, 18.782902], [99.043108, 18.782839], [99.043104, 18.782767], [99.043101, 18.782694], [99.043095, 18.782616], [99.043091, 18.782534], [99.043084, 18.782452], [99.043079, 18.782365], [99.04308, 18.782269], [99.043089, 18.782167], [99.043098, 18.782065], [99.043108, 18.781968], [99.043119, 18.781876], [99.043128, 18.781789], [99.043132, 18.781702], [99.043123, 18.781611], [99.043102, 18.78152], [99.043074, 18.781433], [99.043044, 18.781348], [99.043016, 18.781267], [99.042989, 18.781185], [99.042964, 18.781108], [99.042941, 18.781035], [99.042919, 18.780966], [99.042897, 18.780898], [99.042871, 18.780825], [99.042842, 18.780749], [99.042819, 18.78068], [99.0428, 18.780617], [99.042783, 18.78056], [99.042767, 18.78051], [99.042757, 18.780466], [99.042752, 18.780431], [99.042751, 18.780418], [99.042751, 18.780409], [99.042751, 18.780402], [99.042751, 18.780397], [99.042749, 18.780394], [99.042748, 18.780392], [99.042747, 18.780391], [99.042745, 18.780389], [99.042743, 18.780388], [99.04274, 18.780385], [99.042738, 18.780384], [99.042735, 18.780383], [99.042732, 18.780382], [99.042728, 18.780381], [99.042724, 18.780381], [99.042721, 18.780381], [99.042717, 18.780382], [99.042713, 18.780383], [99.042709, 18.780386], [99.042706, 18.780389], [99.042703, 18.780392], [99.042702, 18.780396], [99.042701, 18.7804], [99.042701, 18.780403], [99.042701, 18.780407], [99.042702, 18.780411], [99.042704, 18.780415], [99.042707, 18.78042], [99.04271, 18.780424], [99.042712, 18.780429], [99.042714, 18.780437], [99.042717, 18.78045], [99.042722, 18.780467], [99.042728, 18.780488], [99.042748, 18.780547], [99.042776, 18.780626], [99.042805, 18.780708], [99.042832, 18.780791], [99.042859, 18.780875], [99.042885, 18.780955], [99.042912, 18.781033], [99.04294, 18.78111], [99.042968, 18.781195], [99.042997, 18.781279], [99.043027, 18.781363], [99.043056, 18.781448], [99.04308, 18.781529], [99.043098, 18.781609], [99.043105, 18.781692], [99.043104, 18.781779], [99.043096, 18.781867], [99.043086, 18.781957], [99.043075, 18.782048], [99.043068, 18.782135], [99.043063, 18.782224], [99.043061, 18.782309], [99.043063, 18.782394], [99.043068, 18.782474], [99.043073, 18.782553], [99.043077, 18.782631], [99.043081, 18.782704], [99.043084, 18.78277], [99.043086, 18.782834], [99.043092, 18.782895], [99.043107, 18.782951], [99.043127, 18.783006], [99.04315, 18.783057], [99.043177, 18.783102], [99.043213, 18.783141], [99.04326, 18.783172], [99.043318, 18.783191], [99.043381, 18.783206], [99.04344, 18.783219], [99.043504, 18.783233], [99.04357, 18.783247], [99.043633, 18.783259], [99.043697, 18.783269], [99.043765, 18.783273], [99.043832, 18.783275], [99.043894, 18.783275], [99.043955, 18.783274], [99.044008, 18.783279], [99.044055, 18.783295], [99.04409, 18.783324], [99.044103, 18.783366], [99.044106, 18.78342], [99.044106, 18.783479], [99.044106, 18.783535], [99.044099, 18.783594], [99.044086, 18.783664], [99.04407, 18.783747], [99.044049, 18.78383], [99.044022, 18.78392], [99.043995, 18.78401], [99.043971, 18.7841], [99.043952, 18.784196], [99.04394, 18.78429], [99.043932, 18.784385], [99.043922, 18.784477], [99.043902, 18.78457], [99.043872, 18.784665], [99.043836, 18.784759], [99.0438, 18.784847], [99.043768, 18.784931], [99.043737, 18.785019], [99.043709, 18.785107], [99.043679, 18.785185], [99.043643, 18.785253], [99.043595, 18.785317], [99.043538, 18.785373], [99.04347, 18.785415], [99.043393, 18.785455], [99.043323, 18.7855], [99.043258, 18.785555], [99.043194, 18.785618], [99.043139, 18.785682], [99.043096, 18.785748], [99.043068, 18.785813], [99.04305, 18.785875], [99.043037, 18.785933], [99.043026, 18.785985], [99.043017, 18.786032], [99.043009, 18.786076], [99.043002, 18.786121], [99.04299, 18.786176], [99.042978, 18.786237], [99.042963, 18.786297], [99.042946, 18.786367], [99.042929, 18.786438], [99.042915, 18.786508], [99.042908, 18.786577], [99.042906, 18.786646], [99.042903, 18.786713], [99.042899, 18.786775], [99.042898, 18.786831], [99.042897, 18.786881], [99.042896, 18.78693], [99.042896, 18.786978], [99.042896, 18.787025], [99.042898, 18.787069], [99.042902, 18.78711], [99.042905, 18.787152], [99.042909, 18.787192], [99.042912, 18.787209], [99.042913, 18.787225], [99.042915, 18.787239], [99.042916, 18.787251], [99.042917, 18.787263], [99.042918, 18.787274], [99.042919, 18.787283], [99.042922, 18.787292], [99.042926, 18.787302], [99.042934, 18.787313], [99.042946, 18.787326], [99.042961, 18.787337], [99.043005, 18.787358], [99.043062, 18.787371], [99.043126, 18.787381], [99.043184, 18.787385], [99.043235, 18.787386], [99.043284, 18.787381], [99.043331, 18.787368], [99.043377, 18.78735], [99.043423, 18.787328], [99.043468, 18.787305], [99.04351, 18.787284], [99.04354, 18.787273], [99.043553, 18.787273], [99.043563, 18.787276], [99.043572, 18.787281], [99.043578, 18.787291], [99.043582, 18.787303], [99.043583, 18.787318], [99.043582, 18.787333], [99.043578, 18.787348], [99.043573, 18.787364], [99.043568, 18.787382], [99.043554, 18.787427], [99.043537, 18.787474], [99.04352, 18.787517], [99.042863, 18.787329], [99.042874, 18.787321], [99.042884, 18.787315], [99.042894, 18.787311], [99.042901, 18.787307], [99.042908, 18.787302], [99.042913, 18.787297], [99.042915, 18.787291], [99.042916, 18.787285], [99.042917, 18.787278], [99.042916, 18.78727], [99.042914, 18.78726], [99.04291, 18.787248], [99.042907, 18.787235], [99.042905, 18.787221], [99.042902, 18.787204], [99.042901, 18.787185], [99.0429, 18.787173], [99.0429, 18.787164], [99.042898, 18.787141], [99.042896, 18.787127], [99.042896, 18.787118], [99.042894, 18.787093], [99.042892, 18.787078], [99.042892, 18.787069], [99.04289, 18.787044], [99.042889, 18.78703], [99.042889, 18.78702], [99.042888, 18.786997], [99.042887, 18.786982], [99.042887, 18.786973], [99.042887, 18.78695], [99.042887, 18.786936], [99.042886, 18.786927], [99.042886, 18.786904], [99.042886, 18.786891], [99.042886, 18.786882], [99.042885, 18.786862], [99.042885, 18.78685], [99.042884, 18.786842], [99.042883, 18.786823], [99.042883, 18.786812], [99.042883, 18.786805], [99.042883, 18.786787], [99.042884, 18.78677], [99.042885, 18.786753], [99.042886, 18.786733], [99.042887, 18.786712], [99.042888, 18.786699], [99.042889, 18.78669], [99.04289, 18.786667], [99.042891, 18.786653], [99.042891, 18.786643], [99.042893, 18.786619], [99.042894, 18.786604], [99.042895, 18.786593], [99.042897, 18.786565], [99.042898, 18.786548], [99.042899, 18.786537], [99.042902, 18.78651], [99.042904, 18.786494], [99.042905, 18.786484], [99.042909, 18.78646], [99.042912, 18.786446], [99.042914, 18.786437], [99.042919, 18.786414], [99.042923, 18.786401], [99.042925, 18.786392], [99.042931, 18.78637], [99.042934, 18.786358], [99.042937, 18.786349], [99.042943, 18.786326], [99.042948, 18.786311], [99.04295, 18.786301], [99.042957, 18.786274], [99.042962, 18.786258], [99.042965, 18.786246], [99.042972, 18.786219], [99.042976, 18.786202], [99.042978, 18.786191], [99.042983, 18.786162], [99.042986, 18.786144], [99.042989, 18.786132], [99.042993, 18.786102], [99.042997, 18.786085], [99.042999, 18.786074], [99.043004, 18.786047], [99.043007, 18.786032], [99.043009, 18.786021], [99.043013, 18.785995], [99.043015, 18.78598], [99.043017, 18.78597], [99.043023, 18.785944], [99.043027, 18.785928], [99.043029, 18.785917], [99.043037, 18.785889], [99.043042, 18.785872], [99.043045, 18.785861], [99.043054, 18.785834], [99.04306, 18.785818], [99.043065, 18.785806], [99.043077, 18.785779], [99.043085, 18.785763], [99.043091, 18.785753], [99.043105, 18.785728], [99.043115, 18.785713], [99.043121, 18.785704], [99.043138, 18.785681], [99.04315, 18.785666], [99.043159, 18.785656], [99.043181, 18.785632], [99.043195, 18.785617], [99.043205, 18.785606], [99.043229, 18.785581], [99.043244, 18.785567], [99.043254, 18.785559], [99.043277, 18.785537], [99.04329, 18.785525], [99.043299, 18.785517], [99.043323, 18.785499], [99.043338, 18.785489], [99.043348, 18.785483], [99.043374, 18.785467], [99.04339, 18.785458], [99.043402, 18.785451], [99.04343, 18.785434], [99.043448, 18.785424], [99.04346, 18.785417], [99.04349, 18.785398], [99.043507, 18.785387], [99.043519, 18.785379], [99.043545, 18.785356], [99.04356, 18.785342], [99.04357, 18.785332], [99.043593, 18.785305], [99.043607, 18.785287], [99.043617, 18.785275], [99.043638, 18.785245], [99.04365, 18.785225], [99.043657, 18.785212], [99.043674, 18.785176], [99.043684, 18.785154], [99.043689, 18.78514], [99.043702, 18.785102], [99.04371, 18.785079], [99.043715, 18.785064], [99.043728, 18.785024], [99.043735, 18.784999], [99.04374, 18.784983], [99.043754, 18.78494], [99.043763, 18.784914], [99.04377, 18.784896], [99.043788, 18.784852], [99.043798, 18.784826], [99.043806, 18.784808], [99.043824, 18.784764], [99.043834, 18.784738], [99.043841, 18.78472], [99.043858, 18.784678], [99.043867, 18.784654], [99.043873, 18.784637], [99.043887, 18.784597], [99.043894, 18.784573], [99.043898, 18.784556], [99.043908, 18.784515], [99.043913, 18.78449], [99.043916, 18.784473], [99.043922, 18.78443], [99.043925, 18.784404], [99.043927, 18.784387], [99.043931, 18.784343], [99.043934, 18.784316], [99.043936, 18.784297], [99.043942, 18.784252], [99.043946, 18.784225], [99.043949, 18.784207], [99.043959, 18.784161], [99.043965, 18.784133], [99.04397, 18.784114], [99.043982, 18.784066], [99.04399, 18.784038], [99.043995, 18.784019], [99.044009, 18.783973], [99.044018, 18.783946], [99.044023, 18.783928], [99.044036, 18.783885], [99.044044, 18.78386], [99.044048, 18.783843], [99.044059, 18.783803], [99.044065, 18.78378], [99.044068, 18.783765], [99.044077, 18.78373], [99.044081, 18.783712], [99.044084, 18.7837], [99.044089, 18.783674], [99.044092, 18.78366], [99.044094, 18.783651], [99.044099, 18.783626], [99.044099, 18.783609], [99.0441, 18.783598], [99.044103, 18.783568], [99.044105, 18.783549], [99.044105, 18.783536], [99.044108, 18.783507], [99.044109, 18.78349], [99.04411, 18.783478], [99.044113, 18.783453], [99.044113, 18.783438], [99.044114, 18.783428], [99.044115, 18.783405], [99.044117, 18.783392], [99.044117, 18.783383], [99.044117, 18.783361], [99.044116, 18.783349], [99.044115, 18.783342], [99.043966, 18.783274], [99.043982, 18.783276], [99.043993, 18.783277], [99.044018, 18.783282], [99.044033, 18.783286], [99.044042, 18.783289], [99.044063, 18.7833], [99.044075, 18.783307], [99.044081, 18.783314], [99.044094, 18.783332], [99.044099, 18.783344], [99.044101, 18.783353], [99.044104, 18.783376], [99.044105, 18.783392], [99.044106, 18.783402], [99.044106, 18.783432], [99.044106, 18.78345], [99.044106, 18.783462], [99.044106, 18.78349], [99.044106, 18.783507], [99.044106, 18.783518], [99.044105, 18.783546], [99.044102, 18.783563], [99.044101, 18.783576], [99.044097, 18.783607], [99.044094, 18.783627], [99.044091, 18.783642], [99.044082, 18.78368], [99.044078, 18.783705], [99.044074, 18.783722], [99.044066, 18.783763], [99.04406, 18.783788], [99.044056, 18.783805], [99.044044, 18.783848], [99.044037, 18.783874], [99.044031, 18.783891], [99.044016, 18.783938], [99.044008, 18.783965], [99.044003, 18.783983], [99.04399, 18.784027], [99.043982, 18.784054], [99.043977, 18.784072], [99.043966, 18.784119], [99.043961, 18.784147], [99.043957, 18.784167], [99.043949, 18.784215], [99.043945, 18.784243], [99.043943, 18.784262], [99.043938, 18.784309], [99.043936, 18.784337], [99.043934, 18.784356], [99.04393, 18.784403], [99.043927, 18.784431], [99.043925, 18.784449], [99.043919, 18.784495], [99.043913, 18.784523], [99.043909, 18.784541], [99.043897, 18.784589], [99.043888, 18.784617], [99.043882, 18.784636], [99.043865, 18.784684], [99.043854, 18.784713], [99.043847, 18.784732], [99.043829, 18.784777], [99.043818, 18.784804], [99.043811, 18.784821], [99.043794, 18.784864], [99.043784, 18.784889], [99.043778, 18.784906], [99.043762, 18.784948], [99.043752, 18.784975], [99.043746, 18.784992], [99.043731, 18.785038], [99.043723, 18.785064], [99.043718, 18.785082], [99.043704, 18.785124], [99.043695, 18.785148], [99.043689, 18.785163], [99.043673, 18.785199], [99.043662, 18.78522], [99.043655, 18.785233], [99.043634, 18.785266], [99.04362, 18.785286], [99.043611, 18.785298], [99.043584, 18.785329], [99.043568, 18.785347], [99.043556, 18.785357], [99.043525, 18.785382], [99.043505, 18.785395], [99.043491, 18.785403], [99.043455, 18.785423], [99.043432, 18.785435], [99.043416, 18.785443], [99.043379, 18.785463], [99.043357, 18.785477], [99.043343, 18.785485], [99.04331, 18.785511], [99.043291, 18.785526], [99.043278, 18.785538], [99.043245, 18.785567], [99.043225, 18.785586], [99.043213, 18.785599], [99.043183, 18.78563], [99.043165, 18.785649], [99.043154, 18.785662], [99.043129, 18.785695], [99.043115, 18.785715], [99.043107, 18.785728], [99.043089, 18.785761], [99.04308, 18.785781], [99.043075, 18.785794], [99.043063, 18.785826], [99.043058, 18.785845], [99.043054, 18.785857], [99.043047, 18.785887], [99.043044, 18.785905], [99.043041, 18.785917], [99.043035, 18.785944], [99.043031, 18.78596], [99.043029, 18.78597], [99.043025, 18.785994], [99.043022, 18.786009], [99.04302, 18.786018], [99.043016, 18.786041], [99.043013, 18.786054], [99.043011, 18.786064], [99.043008, 18.786085], [99.043006, 18.786098], [99.043004, 18.786106], [99.043, 18.786131], [99.042996, 18.786147], [99.042994, 18.786158], [99.042987, 18.786189], [99.042984, 18.786207], [99.042982, 18.786219], [99.042975, 18.786248], [99.042971, 18.786266], [99.042968, 18.786278], [99.042959, 18.78631], [99.042955, 18.786331], [99.042951, 18.786345], [99.042942, 18.786382], [99.042937, 18.786403], [99.042934, 18.786417], [99.042926, 18.786452], [99.042921, 18.786473], [99.042918, 18.786487], [99.042913, 18.786522], [99.04291, 18.786543], [99.042909, 18.786557], [99.042907, 18.786591], [99.042907, 18.786612], [99.042906, 18.786625], [99.042905, 18.78666], [99.042905, 18.78668], [99.042904, 18.786693], [99.042902, 18.786726], [99.0429, 18.786745], [99.042899, 18.786757], [99.042899, 18.786787], [99.042898, 18.786804], [99.042898, 18.786815], [99.042898, 18.786842], [99.042898, 18.786857], [99.042897, 18.786866], [99.042897, 18.786891], [99.042897, 18.786905], [99.042896, 18.786915], [99.042896, 18.78694], [99.042896, 18.786955], [99.042896, 18.786964], [99.042895, 18.786988], [99.042896, 18.787001], [99.042896, 18.787011], [99.042896, 18.787034], [99.042897, 18.787047], [99.042897, 18.787056], [99.042898, 18.787077], [99.0429, 18.78709], [99.042901, 18.787098], [99.059615, 18.776772], [99.059615, 18.776772], [99.059615, 18.776772], [99.059615, 18.776772], [99.059615, 18.776772], [99.059615, 18.776772], [99.059615, 18.776772], [99.059615, 18.776772], [99.059615, 18.776772], [99.059615, 18.776772], [99.059615, 18.776772], [99.059615, 18.776772], [99.059615, 18.776772], [99.059615, 18.776772], [99.059615, 18.776772], [99.059615, 18.776772], [99.059615, 18.776772], [99.059615, 18.776772], [99.059615, 18.776772], [99.059615, 18.776772], [99.059615, 18.776772], [99.059615, 18.776772], [99.059615, 18.776772], [99.059615, 18.776772], [99.059615, 18.776772], [99.059615, 18.776772], [99.059615, 18.776772], [99.059615, 18.776772], [99.059615, 18.776772], [99.059615, 18.776772], [99.059615, 18.776772], [99.059615, 18.776772], [99.059615, 18.776772], [99.059615, 18.776772], [99.059615, 18.776772], [99.059615, 18.776772], [99.059615, 18.776772], [99.059615, 18.776772], [99.059615, 18.776772], [99.059615, 18.776772], [99.059615, 18.776772], [99.059615, 18.776772], [99.059615, 18.776772], [99.059615, 18.776772], [99.047878, 18.78577], [99.047877, 18.785771], [99.048128, 18.785832], [99.048176, 18.78585], [99.048234, 18.785868], [99.048288, 18.78589], [99.048342, 18.785909], [99.048394, 18.785928], [99.04844, 18.785943], [99.048486, 18.785961], [99.048529, 18.785977], [99.048568, 18.785998], [99.048608, 18.78601], [99.048645, 18.786022], [99.048683, 18.786033], [99.048723, 18.786045], [99.048762, 18.786056], [99.048805, 18.786067], [99.048849, 18.786079], [99.048887, 18.786095], [99.048929, 18.786113], [99.048971, 18.786132], [99.049009, 18.78615], [99.049044, 18.786168], [99.049318, 18.786221], [99.049363, 18.786178], [99.049413, 18.786123], [99.049462, 18.786065], [99.049515, 18.786004], [99.049567, 18.785941], [99.049617, 18.785874], [99.049667, 18.785802], [99.049714, 18.785728], [99.049757, 18.785656], [99.049796, 18.78559], [99.049835, 18.785525], [99.049877, 18.785463], [99.049921, 18.785407], [99.049964, 18.785352], [99.050005, 18.785298], [99.050041, 18.785247], [99.050073, 18.785196], [99.050101, 18.78514], [99.050124, 18.785081], [99.050141, 18.785018], [99.050156, 18.784954], [99.050171, 18.784888], [99.050185, 18.784824], [99.050197, 18.784765], [99.05021, 18.784702], [99.050226, 18.784633], [99.050243, 18.784557], [99.050258, 18.784484], [99.050274, 18.78441], [99.050288, 18.784336], [99.050301, 18.784264], [99.05032, 18.784196], [99.050348, 18.78413], [99.050383, 18.784064], [99.05042, 18.783998], [99.050454, 18.783931], [99.050485, 18.783865], [99.050514, 18.783796], [99.050544, 18.783723], [99.050579, 18.783651], [99.050619, 18.783577], [99.050659, 18.783505], [99.050697, 18.783429], [99.05073, 18.783353], [99.05076, 18.783276], [99.050786, 18.783201], [99.050808, 18.783122], [99.05083, 18.783037], [99.050851, 18.782946], [99.050868, 18.782859], [99.050885, 18.782776], [99.050903, 18.782696], [99.05092, 18.782617], [99.050939, 18.782536], [99.05096, 18.782457], [99.050982, 18.782381], [99.051002, 18.782307], [99.051021, 18.782237], [99.05104, 18.782167], [99.051058, 18.782102], [99.051074, 18.782042], [99.051087, 18.781983], [99.051098, 18.781926], [99.051106, 18.781873], [99.051111, 18.78182], [99.051115, 18.781771], [99.051121, 18.781724], [99.051129, 18.781677], [99.051139, 18.781625], [99.05115, 18.781572], [99.051161, 18.781523], [99.051172, 18.781475], [99.051184, 18.781424], [99.051195, 18.781375], [99.051206, 18.781325], [99.051217, 18.781273], [99.051227, 18.781221], [99.051241, 18.781164], [99.051258, 18.781099], [99.051276, 18.781025], [99.051295, 18.780947], [99.051313, 18.780874], [99.051331, 18.7808], [99.051349, 18.780726], [99.051364, 18.780655], [99.05138, 18.780587], [99.051396, 18.780522], [99.05141, 18.780461], [99.051422, 18.780397], [99.051431, 18.780331], [99.05144, 18.78027], [99.051451, 18.78021], [99.051464, 18.780143], [99.051476, 18.780073], [99.05149, 18.78], [99.051505, 18.779923], [99.05152, 18.77984], [99.051534, 18.779753], [99.051546, 18.779661], [99.051556, 18.779572], [99.051564, 18.779484], [99.051572, 18.779403], [99.051579, 18.779327], [99.051586, 18.779257], [99.051592, 18.779192], [99.051599, 18.779129], [99.051606, 18.779067], [99.051612, 18.779006], [99.051618, 18.778946], [99.051623, 18.778891], [99.051628, 18.778842], [99.051633, 18.778796], [99.051639, 18.778753], [99.051647, 18.778713], [99.051654, 18.778676], [99.051688, 18.778571], [99.051686, 18.77857], [99.051682, 18.778569], [99.051677, 18.778569], [99.051673, 18.778568], [99.051672, 18.778568], [99.051673, 18.778569], [99.051676, 18.77857], [99.051678, 18.778571], [99.051678, 18.778571], [99.051678, 18.778571], [99.051677, 18.778571], [99.051678, 18.778571], [99.051678, 18.778571], [99.051678, 18.778571], [99.051678, 18.778571], [99.051678, 18.778571], [99.051677, 18.778571], [99.051678, 18.778571], [99.051678, 18.778571], [99.051678, 18.778571], [99.051677, 18.778572], [99.051677, 18.778572], [99.051677, 18.778572], [99.051677, 18.778572], [99.051677, 18.778572], [99.051677, 18.778572], [99.051676, 18.778573], [99.051676, 18.778573], [99.051676, 18.778573], [99.051676, 18.778573], [99.051676, 18.778573], [99.051676, 18.778573], [99.051676, 18.778573], [99.051676, 18.778573], [99.051676, 18.778574], [99.051676, 18.778574], [99.051676, 18.778574], [99.051676, 18.778574], [99.051676, 18.778574], [99.051676, 18.778574], [99.051676, 18.778574], [99.051676, 18.778574], [99.051675, 18.778574], [99.051675, 18.778574], [99.051675, 18.778574], [99.051675, 18.778574], [99.051675, 18.778574], [99.051675, 18.778574], [99.051675, 18.778574], [99.051675, 18.778574], [99.051675, 18.778574], [99.051675, 18.778575], [99.051675, 18.778575], [99.051675, 18.778574], [99.051675, 18.778574], [99.051676, 18.778574], [99.051676, 18.778575], [99.051676, 18.778575], [99.051676, 18.778575], [99.051673, 18.778575], [99.051611, 18.778656], [99.051603, 18.778707], [99.051596, 18.778766], [99.051589, 18.778836], [99.051582, 18.778919], [99.051573, 18.779008], [99.051565, 18.779094], [99.051558, 18.779179], [99.05155, 18.779265], [99.051542, 18.77935], [99.051533, 18.779435], [99.051524, 18.779521], [99.051515, 18.779607], [99.051504, 18.779692], [99.051491, 18.779777], [99.051475, 18.779861], [99.051459, 18.779945], [99.051445, 18.780022], [99.05143, 18.780093], [99.051416, 18.780164], [99.051405, 18.780236], [99.051396, 18.780306], [99.051388, 18.780373], [99.051379, 18.780441], [99.051367, 18.780507], [99.051351, 18.780579], [99.051332, 18.780656], [99.051314, 18.780726], [99.051296, 18.780792], [99.051277, 18.780858], [99.05126, 18.780928], [99.051246, 18.781003], [99.051233, 18.781076], [99.051219, 18.781147], [99.051203, 18.781219], [99.051186, 18.781292], [99.051169, 18.781361], [99.05115, 18.781431], [99.051132, 18.781501], [99.051116, 18.781569], [99.051103, 18.781633], [99.051092, 18.78169], [99.051083, 18.781747], [99.051074, 18.781806], [99.051063, 18.781862], [99.051054, 18.781915], [99.051046, 18.781969], [99.051033, 18.782029], [99.051017, 18.782096], [99.051001, 18.782167], [99.050986, 18.782237], [99.050971, 18.782306], [99.050955, 18.782377], [99.050939, 18.782449], [99.05092, 18.782522], [99.0509, 18.782594], [99.05088, 18.782664], [99.050863, 18.782728], [99.050848, 18.782784], [99.050837, 18.78284], [99.050826, 18.782895], [99.050817, 18.782949], [99.050809, 18.782998], [99.0508, 18.78304], [99.050772, 18.783144], [99.050758, 18.783193], [99.050738, 18.783252], [99.050714, 18.783317], [99.050691, 18.783376], [99.050669, 18.783427], [99.050647, 18.783465], [99.050535, 18.783502], [99.050473, 18.783513], [99.05041, 18.783525], [99.050343, 18.783538], [99.050272, 18.783549], [99.0502, 18.783556], [99.050131, 18.783561], [99.050064, 18.783562], [99.050002, 18.783561], [99.049945, 18.783556], [99.049892, 18.783551], [99.049841, 18.783549], [99.049791, 18.783548], [99.049746, 18.783546], [99.049642, 18.783528], [99.04964, 18.783526], [99.049639, 18.783525], [99.049639, 18.783525], [99.04964, 18.783527], [99.04964, 18.783528], [99.049641, 18.783528], [99.049642, 18.783529], [99.049643, 18.783529], [99.049644, 18.78353], [99.049646, 18.78353], [99.049648, 18.78353], [99.049649, 18.783531], [99.049651, 18.783531], [99.049652, 18.783532], [99.049653, 18.783532], [99.049654, 18.783533], [99.049655, 18.783534], [99.049657, 18.783534], [99.049657, 18.783534], [99.049657, 18.783535], [99.049658, 18.783537], [99.04966, 18.783538], [99.049661, 18.783539], [99.049662, 18.783539], [99.049662, 18.783539], [99.049661, 18.783539], [99.049661, 18.783539], [99.049662, 18.783538], [99.049663, 18.783538], [99.049663, 18.783537], [99.049663, 18.783536], [99.049664, 18.783536], [99.049664, 18.783535], [99.049664, 18.783535], [99.049663, 18.783535], [99.049663, 18.783535], [99.049663, 18.783536], [99.049663, 18.783537], [99.049664, 18.783538], [99.049664, 18.78354], [99.049665, 18.78354], [99.049665, 18.78354], [99.049666, 18.78354], [99.049667, 18.78354], [99.049667, 18.783539], [99.049668, 18.783538], [99.049669, 18.783538], [99.049671, 18.783537], [99.049672, 18.783537], [99.049674, 18.783536], [99.049674, 18.783536], [99.049674, 18.783536], [99.049674, 18.783536], [99.049674, 18.783536], [99.049673, 18.783537], [99.049672, 18.783537], [99.049671, 18.783538], [99.049671, 18.783539], [99.049671, 18.783541], [99.04967, 18.783541], [99.049669, 18.783542], [99.049669, 18.783544], [99.049668, 18.783545], [99.049668, 18.783545], [99.049668, 18.783545], [99.049669, 18.783544], [99.049672, 18.783544], [99.049784, 18.783555], [99.049831, 18.783557], [99.049885, 18.78356], [99.049938, 18.783563], [99.049993, 18.783567], [99.050049, 18.783569], [99.050106, 18.783567], [99.050164, 18.783563], [99.050221, 18.783558], [99.050275, 18.783551], [99.050326, 18.783542], [99.050375, 18.783534], [99.050422, 18.783525], [99.050466, 18.783516], [99.050536, 18.783647], [99.050518, 18.783684], [99.050501, 18.783723], [99.050484, 18.783763], [99.050469, 18.783801], [99.050451, 18.783841], [99.050427, 18.783892], [99.0504, 18.783945], [99.050374, 18.783998], [99.050349, 18.784048], [99.050327, 18.784093], [99.050304, 18.784135], [99.050282, 18.784183], [99.050264, 18.784232], [99.050251, 18.784289], [99.05024, 18.784352], [99.05023, 18.784418], [99.050217, 18.784484], [99.050201, 18.784555], [99.050181, 18.784631], [99.050164, 18.784704], [99.050149, 18.784775], [99.050135, 18.784844], [99.050121, 18.784912], [99.050109, 18.784976], [99.0501, 18.785035], [99.050088, 18.785089], [99.050068, 18.785141], [99.050041, 18.785188], [99.050012, 18.785229], [99.049982, 18.785267], [99.049945, 18.785313], [99.049903, 18.78537], [99.049859, 18.785436], [99.049817, 18.785507], [99.049778, 18.785573], [99.04974, 18.785636], [99.049701, 18.7857], [99.049663, 18.785764], [99.049626, 18.785821], [99.049588, 18.785874], [99.049548, 18.785923], [99.049506, 18.785972], [99.049466, 18.786017], [99.049429, 18.78606], [99.049395, 18.7861], [99.049363, 18.786137], [99.049333, 18.786174], [99.049304, 18.786209], [99.049268, 18.786252], [99.049228, 18.786305], [99.049187, 18.786368], [99.049149, 18.786433], [99.04911, 18.786494], [99.04907, 18.786552], [99.049027, 18.786609], [99.04898, 18.786672], [99.048932, 18.78673], [99.048887, 18.786781], [99.048843, 18.786828], [99.0488, 18.786874], [99.04876, 18.786919], [99.048727, 18.786961], [99.048697, 18.787], [99.048669, 18.787037], [99.048642, 18.787074], [99.048609, 18.787119], [99.048568, 18.787171], [99.048519, 18.787224], [99.048468, 18.787284], [99.048419, 18.787356], [99.048375, 18.787433], [99.048336, 18.787508], [99.048303, 18.787582], [99.048273, 18.787657], [99.048246, 18.787727], [99.04822, 18.787796], [99.048196, 18.787859], [99.048174, 18.787913], [99.048154, 18.787952], [99.048004, 18.787946], [99.047935, 18.78792], [99.047846, 18.787888], [99.047751, 18.787852], [99.047649, 18.787811], [99.047549, 18.787772], [99.047454, 18.787737], [99.047361, 18.787707], [99.047269, 18.787675], [99.047178, 18.787644], [99.04708, 18.787613], [99.046978, 18.78758], [99.046877, 18.787551], [99.04678, 18.78752], [99.046684, 18.787491], [99.046591, 18.787459], [99.046498, 18.787429], [99.046405, 18.7874], [99.046309, 18.78737], [99.046214, 18.78734], [99.046127, 18.787312], [99.04604, 18.787284], [99.045951, 18.787253], [99.045864, 18.787224], [99.045783, 18.787198], [99.045709, 18.787176], [99.045641, 18.787155], [99.045582, 18.787135], [99.045534, 18.787119], [99.045491, 18.787105], [99.045327, 18.78707], [99.045288, 18.787059], [99.045237, 18.787042], [99.045167, 18.787019], [99.045081, 18.78699], [99.044983, 18.786956], [99.044879, 18.78692], [99.044775, 18.786886], [99.044673, 18.786855], [99.044575, 18.786825], [99.04448, 18.786797], [99.044388, 18.786771], [99.044303, 18.786748], [99.044223, 18.786726], [99.044145, 18.786705], [99.044069, 18.786684], [99.043999, 18.786665], [99.043932, 18.786648], [99.043872, 18.786634], [99.043825, 18.786621], [99.043786, 18.786618], [99.043707, 18.786691], [99.043694, 18.786741], [99.043684, 18.786795], [99.043675, 18.786851], [99.043668, 18.786912], [99.043662, 18.786969], [99.043654, 18.787022], [99.043644, 18.78707], [99.043632, 18.787116], [99.043612, 18.787159], [99.043578, 18.787194], [99.043533, 18.787223], [99.043487, 18.787246], [99.043438, 18.787267], [99.043388, 18.787289], [99.043342, 18.787308], [99.0433, 18.787326], [99.043256, 18.787344], [99.04321, 18.787352], [99.04316, 18.787352], [99.043106, 18.787348], [99.04305, 18.78734], [99.042987, 18.787328], [99.042922, 18.787316], [99.042857, 18.787306], [99.042788, 18.787297], [99.04272, 18.787287], [99.042652, 18.787276], [99.042581, 18.787263], [99.042502, 18.78725], [99.042417, 18.787236], [99.042333, 18.787222], [99.042242, 18.787208], [99.042147, 18.787194], [99.042053, 18.787181], [99.041957, 18.787166], [99.041859, 18.787151], [99.041761, 18.787138], [99.04167, 18.787129], [99.041587, 18.78712], [99.041512, 18.787111], [99.041445, 18.787102], [99.041384, 18.787092], [99.04133, 18.787084], [99.041282, 18.787074], [99.041371, 18.787048], [99.041419, 18.787069], [99.041481, 18.787087], [99.041564, 18.787102], [99.041665, 18.787119], [99.041774, 18.787144], [99.041893, 18.787174], [99.042006, 18.787198], [99.042116, 18.787219], [99.042223, 18.787239], [99.042323, 18.787257], [99.042421, 18.787275], [99.042517, 18.787293], [99.042606, 18.787311], [99.042686, 18.787328], [99.042753, 18.78734], [99.042804, 18.787345], [99.043888, 18.783261], [99.043841, 18.783262], [99.043784, 18.783262], [99.043726, 18.783261], [99.043666, 18.783255], [99.0436, 18.783243], [99.043539, 18.78323], [99.043483, 18.783216], [99.043425, 18.783202], [99.043367, 18.783189], [99.043316, 18.783176], [99.04327, 18.783159], [99.04323, 18.78313], [99.043194, 18.783086], [99.043162, 18.783038], [99.043137, 18.782986], [99.043118, 18.782931], [99.04311, 18.782871], [99.043107, 18.782803], [99.043103, 18.78273], [99.043098, 18.782656], [99.043093, 18.782575], [99.043087, 18.782493], [99.043081, 18.782409], [99.043078, 18.782318], [99.043084, 18.782218], [99.043093, 18.782116], [99.043103, 18.782016], [99.043113, 18.781922], [99.043124, 18.781832], [99.043131, 18.781745], [99.04313, 18.781657], [99.043114, 18.781565], [99.043089, 18.781476], [99.043059, 18.78139], [99.043029, 18.781307], [99.043003, 18.781226], [99.042977, 18.781146], [99.042953, 18.78107], [99.04293, 18.781], [99.042908, 18.780933], [99.042884, 18.780862], [99.042856, 18.780787], [99.042829, 18.780714], [99.042809, 18.780648], [99.042792, 18.780588], [99.042775, 18.780534], [99.042762, 18.780487], [99.042754, 18.780447], [99.042737, 18.780515], [99.042761, 18.780584], [99.04279, 18.780667], [99.042819, 18.780749], [99.042846, 18.780833], [99.042872, 18.780915], [99.042899, 18.780995], [99.042926, 18.781071], [99.042953, 18.781152], [99.042983, 18.781238], [99.043012, 18.781321], [99.043042, 18.781406], [99.043068, 18.781488], [99.04309, 18.781568], [99.043103, 18.781649], [99.043106, 18.781736], [99.0431, 18.781823], [99.043091, 18.781912], [99.04308, 18.782003], [99.043071, 18.782092], [99.043065, 18.78218], [99.043061, 18.782267], [99.043061, 18.782351], [99.043065, 18.782435], [99.043071, 18.782513], [99.043076, 18.782592], [99.043079, 18.782669], [99.043083, 18.782738], [99.043085, 18.782802], [99.043088, 18.782865], [99.043099, 18.782923], [99.043115, 18.782979], [99.043139, 18.783033], [99.043162, 18.78308], [99.043194, 18.783123], [99.043235, 18.783158], [99.043287, 18.783182], [99.04335, 18.783198], [99.04341, 18.783212], [99.043471, 18.783226], [99.043538, 18.78324], [99.043601, 18.783253], [99.043665, 18.783265], [99.043731, 18.783272], [99.0438, 18.783275], [99.043863, 18.783275], [99.043925, 18.783274]]}}]}